fullName,city,state,location,lon,lat,type,loctype,address,north,south,east,west
McKale Center,Tucson,AZ,"McKale Center, Tucson, AZ",-110.9460438,32.2297033,establishment,rooftop,"1721 e enke dr, tucson, az 85721, usa",32.2309566302915,32.2282586697085,-110.9446642197085,-110.9473621802915
Humphrey Coliseum,Starkville,MS,"Humphrey Coliseum, Starkville, MS",-88.7940254,33.4614159,premise,rooftop,"humphrey coliseum, 55 bailey howell dr, starkville, ms 39759, usa",33.46271823029149,33.46002026970849,-88.7926169197085,-88.7953148802915
Carnesecca Arena,Queens,NY,"Carnesecca Arena, Queens, NY",-73.7945744,40.7241781,establishment,rooftop,"jamaica, ny 11439, usa",40.7255353802915,40.7228374197085,-73.7932134697085,-73.79591143029151
Reed Arena,College Station,TX,"Reed Arena, College Station, TX",-96.3462325,30.6060094,atm,rooftop,"730 olsen blvd, college station, tx 77843, usa",30.6077647302915,30.6050667697085,-96.34478701970849,-96.34748498029151
Neville Arena,Auburn,AL,"Neville Arena, Auburn, AL",-85.4924988,32.6027586,establishment,rooftop,"auburn arena, 250 beard-eaves court, auburn, al 36849, usa",32.6038894302915,32.6011914697085,-85.49085906970849,-85.49355703029151
Bud Walton Arena,Fayetteville,AR,"Bud Walton Arena, Fayetteville, AR",-94.1781312,36.06153860000001,establishment,rooftop,"1270 nolan richardson dr, fayetteville, ar 72701, usa",36.0627554302915,36.0600574697085,-94.1767894197085,-94.1794873802915
Desert Financial Arena,Tempe,AZ,"Desert Financial Arena, Tempe, AZ",-111.9310002,33.424495,establishment,rooftop,"600 e veterans way, tempe, az 85281, usa",33.4254444302915,33.4227464697085,-111.9292907,-111.93206
Viejas Arena,San Diego,CA,"Viejas Arena, San Diego, CA",-117.0746442,32.7740276,establishment,rooftop,"5500 canyon crest dr, san diego, ca 92182, usa",32.77493303029149,32.77223506970849,-117.0739183197085,-117.0766162802915
Maples Pavilion,Stanford,CA,"Maples Pavilion, Stanford, CA",-122.1606333,37.4296194,establishment,rooftop,"655 campus drive, stanford, ca 94305, usa",37.4307141802915,37.4280162197085,-122.1594818197085,-122.1621797802915
Haas Pavilion,Berkeley,CA,"Haas Pavilion, Berkeley, CA",-122.2621795,37.8694051,establishment,rooftop,"115 haas pavilion, berkeley, ca 94720, usa",37.8710125802915,37.8683146197085,-122.2609261697085,-122.2636241302915
Los Angeles Memorial Sports Arena,Los Angeles,CA,"Los Angeles Memorial Sports Arena, Los Angeles, CA",-118.2878754,34.0140526,establishment,rooftop,"3911 s figueroa st, los angeles, ca 90037, usa",34.0180559,34.0110399,-118.2828457,-118.2901379
SRC Arena,Riverside,CA,"SRC Arena, Riverside, CA",-117.3286666,33.9788436,establishment,rooftop,"900 university ave, riverside, ca 92521, usa",33.9800263302915,33.9773283697085,-117.3274845197085,-117.3301824802915
Galen Center,Los Angeles,CA,"Galen Center, Los Angeles, CA",-118.2798781,34.0208427,establishment,rooftop,"3400 s figueroa st, los angeles, ca 90089, usa",34.0223880302915,34.0196900697085,-118.2787752197085,-118.2814731802915
Moby Arena,Fort Collins,CO,"Moby Arena, Fort Collins, CO",-105.0932133,40.5756643,establishment,rooftop,"951 w plum st, fort collins, co 80521, usa",40.5769763302915,40.5742783697085,-105.0923890697085,-105.0950870302915
CU Events Center,Boulder,CO,"CU Events Center, Boulder, CO",-105.2606163,40.0046715,establishment,rooftop,"coors events, 950 regent dr, boulder, co 80309, usa",40.0064166302915,40.0037186697085,-105.2597080197085,-105.2624059802915
Gampel Pavilion,Storrs,CT,"Gampel Pavilion, Storrs, CT",-72.2544231,41.805293,establishment,rooftop,"2098 hillside rd, storrs, ct 06268, usa",41.8066637302915,41.8039657697085,-72.2526361697085,-72.2553341302915
Charles E. Smith Center,Washington,DC,"Charles E. Smith Center, Washington, DC",-77.04933799999999,38.8978433,establishment,rooftop,"600 22nd st nw, washington, dc 20052, usa",38.8989522802915,38.8962543197085,-77.0481309697085,-77.0508289302915
Donald L. Tucker Center,Tallahassee,FL,"Donald L. Tucker Center, Tallahassee, FL",-84.2866581,30.4377823,establishment,rooftop,"505 w pensacola st, tallahassee, fl 32301, usa",30.4393500302915,30.4366520697085,-84.28578521970849,-84.28848318029151
Pete Mathews Coliseum,Jacksonville,AL,"Pete Mathews Coliseum, Jacksonville, AL",-85.7735038,33.8241586,establishment,rooftop,"775 park ave nw #735, jacksonville, al 36265, usa",33.8254698302915,33.8227718697085,-85.77167891970849,-85.7743768802915
Edmunds Center,Deland,FL,"Edmunds Center, Deland, FL",-81.3018584,29.0395387,establishment,rooftop,"143 e pennsylvania ave, deland, fl 32720, usa",29.0408970802915,29.0381991197085,-81.30081996970848,-81.3035179302915
Exactech Arena at Stephen C. O'Connell Center,Gainesville,FL,"Exactech Arena at Stephen C. O'Connell Center, Gainesville, FL",-82.35116819999999,29.649423,establishment,rooftop,"250 gale lemerand dr, gainesville, fl 32611, usa",29.6511738302915,29.6484758697085,-82.34944296970849,-82.3521409302915
The Arena at Gwinnett Center,Duluth,GA,"The Arena at Gwinnett Center, Duluth, GA",-84.0938603,33.9913579,premise,rooftop,"the arena at gwinnett center, 6400 sugarloaf pkwy, duluth, ga 30097, usa",33.99295303029149,33.99025506970849,-84.092588869708507,-84.09528683029151
Stegeman Coliseum,Athens,GA,"Stegeman Coliseum, Athens, GA",-83.3778105,33.9425065,establishment,rooftop,"100 smith st, athens, ga 30605, usa",33.9442106802915,33.9415127197085,-83.3766879197085,-83.37938588029151
ExtraMile Arena,Boise,ID,"ExtraMile Arena, Boise, ID",-116.1989425,43.6035805,premise,rooftop,"extramile arena, 1401 w cesar chavez ln, boise, id 83706, usa",43.6049272302915,43.6022292697085,-116.1977177197085,-116.2004156802915
Simon Skjodt Assembly Hall,Bloomington,IN,"Simon Skjodt Assembly Hall, Bloomington, IN",-86.5221321,39.1808898,establishment,rooftop,"1001 e 17th st, bloomington, in 47408, usa",39.18213748029149,39.1794395197085,-86.52098801970848,-86.5236859802915
IUPUI Gymnasium,Indianapolis,IN,"IUPUI Gymnasium, Indianapolis, IN",-86.1747785,39.7708713,establishment,rooftop,"physical education and natatorium, 901 w new york st, indianapolis, in 46202, usa",39.7723236802915,39.7696257197085,-86.1738737197085,-86.17657168029152
CFSB Center,Murray,KY,"CFSB Center, Murray, KY",-88.3199152,36.6226834,establishment,rooftop,"1401 ky-121, murray, ky 42071, usa",36.62397248029149,36.62127451970849,-88.3186795697085,-88.3213775302915
Rupp Arena,Lexington,KY,"Rupp Arena, Lexington, KY",-84.50252259999999,38.0492752,establishment,rooftop,"430 w vine st, lexington, ky 40507, usa",38.0502147302915,38.0475167697085,-84.50114411970848,-84.5038420802915
KFC Yum! Center,Louisville,KY,"KFC Yum! Center, Louisville, KY",-85.75386809999999,38.257820100000004,establishment,rooftop,"1 arena plaza, louisville, ky 40202, usa",38.2584341302915,38.2557361697085,-85.75254131970848,-85.75523928029149
E. A. Diddle Arena,Bowling Green,KY,"E. A. Diddle Arena, Bowling Green, KY",-86.4576173,36.986323,establishment,rooftop,"1605 avenue of champions, bowling green, ky 42101, usa",36.9873990302915,36.9847010697085,-86.4562199197085,-86.45891788029152
Case Gym,Boston,MA,"Case Gym, Boston, MA",-71.12035879999999,42.3539377,establishment,rooftop,"285 babcock st, boston, ma 02215, usa",42.35524058029149,42.35254261970849,-71.11924031970848,-71.12193828029149
Lavietes Pavilion,Cambridge,MA,"Lavietes Pavilion, Cambridge, MA",-71.1252674,42.368211,premise,rooftop,"lavietes pavilion, 45 n harvard st, allston, ma 02134, usa",42.36956533029149,42.3668673697085,-71.12394611970849,-71.1266440802915
William D. Mullins Memorial Center,Amherst,MA,"William D. Mullins Memorial Center, Amherst, MA",-72.5334464,42.389382,premise,rooftop,"mullins center, 200 commonwealth ave, amherst, ma 01003, usa",42.3907318802915,42.3880339197085,-72.53212546970849,-72.5348234302915
Crisler Center,Ann Arbor,MI,"Crisler Center, Ann Arbor, MI",-83.746668,42.265047,establishment,rooftop,"333 e stadium blvd, ann arbor, mi 48109, usa",42.2667294802915,42.2640315197085,-83.74532666970849,-83.74802463029151
Chaifetz Arena,St. Louis,MO,"Chaifetz Arena, St. Louis, MO",-90.2278912,38.6325363,establishment,rooftop,"1 s compton ave, st. louis, mo 63103, usa",38.63369953029149,38.63100156970849,-90.22684866970852,-90.22954663029152
Mizzou Arena,Columbia,MO,"Mizzou Arena, Columbia, MO",-92.3337961,38.9325054,establishment,rooftop,"1 champions dr, columbia, mo 65203, usa",38.9339949802915,38.9312970197085,-92.3322492197085,-92.33494718029151
C. M. Tad Smith Coliseum,Oxford,MS,"C. M. Tad Smith Coliseum, Oxford, MS",-89.53936949999999,34.3623522,establishment,rooftop,"loyalty foundation, coliseum dr, university, ms 38677, usa",34.36386228029149,34.36116431970849,-89.5378612697085,-89.5405592302915
Cameron Indoor Stadium,Durham,NC,"Cameron Indoor Stadium, Durham, NC",-78.942205,35.9974715,establishment,rooftop,"115 whitford dr, durham, nc 27708, usa",35.9985094802915,35.9958115197085,-78.9414131697085,-78.9441111302915
Williams Arena,Minneapolis,MN,"Williams Arena, Minneapolis, MN",-93.22797130000001,44.97684719999999,subpremise,rooftop,"williams arena, minneapolis, mn 55455, usa",44.9780350302915,44.9753370697085,-93.22692201970851,-93.22961998029152
PNC Arena,Raleigh,NC,"PNC Arena, Raleigh, NC",-78.7218018,35.803329,establishment,rooftop,"1400 edwards mill rd, raleigh, nc 27607, usa",35.8044959802915,35.8017980197085,-78.7204382197085,-78.7231361802915
Lawrence Joel Veterans Memorial Coliseum,Winston-Salem,NC,"Lawrence Joel Veterans Memorial Coliseum, Winston-Salem, NC",-80.2574934,36.12770769999999,establishment,rooftop,"2825 university pkwy, winston-salem, nc 27105, usa",36.1286294802915,36.1259315197085,-80.2562057197085,-80.25890368029151
CHI Health Center Omaha,Omaha,NE,"CHI Health Center Omaha, Omaha, NE",-95.9280471,41.264328,establishment,rooftop,"455 n 10th st, omaha, ne 68102, usa",41.2658047,41.2597254,-95.9253555,-95.9292687
Bob Devaney Sports Center,Lincoln,NE,"Bob Devaney Sports Center, Lincoln, NE",-96.6976224,40.8302717,establishment,rooftop,"1600 court st, lincoln, ne 68508, usa",40.8319298302915,40.8292318697085,-96.69585126970848,-96.6985492302915
Lundholm Gymnasium,Durham,NH,"Lundholm Gymnasium, Durham, NH",-70.9375613,43.1388127,establishment,rooftop,"145 main st, durham, nh 03824, usa",43.1402856802915,43.1375877197085,-70.93623431970849,-70.9389322802915
Jersey Mike’s Arena,Piscataway,NJ,"Jersey Mike’s Arena, Piscataway, NJ",-74.44135299999999,40.52525,establishment,rooftop,"83 rockafeller rd, piscataway, nj 08854, usa",40.5268253802915,40.5241274197085,-74.44013596970849,-74.4428339302915
The Pit,Albuquerque,NM,"The Pit, Albuquerque, NM",-106.632261,35.06705230000001,premise,rooftop,"university arena (basketball arena, “the pit”), 1111 university blvd se, albuquerque, nm 87106, usa",35.0683012302915,35.0656032697085,-106.6307822697085,-106.6334802302915
Reilly Center,Saint Bonaventure,NY,"Reilly Center, Saint Bonaventure, NY",-78.4849316,42.0794442,establishment,rooftop,"st. bonaventure university, saint bonaventure, ny, reilly center, olean, ny 14760, usa",42.08062783029149,42.07792986970849,-78.48378826970848,-78.4864862302915
Stroh Center,Bowling Green,OH,"Stroh Center, Bowling Green, OH",-83.6262187,41.3752336,establishment,rooftop,"1535 e wooster st, bowling green, oh 43403, usa",41.3764311802915,41.3737332197085,-83.62445611970848,-83.62715408029149
Value City Arena,Columbus,OH,"Value City Arena, Columbus, OH",-83.0248064,40.0075992,establishment,rooftop,"555 borror dr, columbus, oh 43210, usa",40.0092369302915,40.0065389697085,-83.02306321970849,-83.02576118029151
Gallagher-Iba Arena,Stillwater,OK,"Gallagher-Iba Arena, Stillwater, OK",-97.0650891,36.1262241,establishment,rooftop,"200, athletic center, stillwater, ok 74078, usa",36.1276327302915,36.1249347697085,-97.0637292697085,-97.06642723029151
Lloyd Noble Center,Norman,OK,"Lloyd Noble Center, Norman, OK",-97.44426200000001,35.18733,establishment,rooftop,"2900 s jenkins ave, norman, ok 73019, usa",35.18880293029149,35.1861049697085,-97.4423084697085,-97.44500643029151
Donald W. Reynolds Center,Tulsa,OK,"Donald W. Reynolds Center, Tulsa, OK",-95.9420646,36.1490729,establishment,rooftop,"reynolds center, 3208 e 8th st, tulsa, ok 74104, usa",36.1505717802915,36.1478738197085,-95.94053346970848,-95.94323143029149
Petersen Events Center,Pittsburgh,PA,"Petersen Events Center, Pittsburgh, PA",-79.96229439999999,40.4439212,establishment,rooftop,"3719 terrace st, pittsburgh, pa 15261, usa",40.44496048029149,40.4422625197085,-79.9605248697085,-79.9632228302915
Finneran Pavilion,Villanova,PA,"Finneran Pavilion, Villanova, PA",-75.33715099999999,40.0340775,establishment,rooftop,"800 e lancaster ave, villanova, pa 19085, usa",40.0355547302915,40.0328567697085,-75.33578861970848,-75.33848658029149
Littlejohn Coliseum,Clemson,SC,"Littlejohn Coliseum, Clemson, SC",-82.8464242,34.6804137,establishment,rooftop,"219 perimeter rd, clemson, sc 29634, usa",34.6820384802915,34.6793405197085,-82.8453415197085,-82.8480394802915
Timmons Arena,Greenville,SC,"Timmons Arena, Greenville, SC",-82.43728899999999,34.9179345,establishment,rooftop,"3300 poinsett hwy, greenville, sc 29613, usa",34.9193694802915,34.9166715197085,-82.43631161970849,-82.4390095802915
Memorial Gymnasium (TN),Nashville,TN,"Memorial Gymnasium (TN), Nashville, TN",-86.8072875,36.1445329,establishment,rooftop,"210 25th ave s, nashville, tn 37240, usa",36.1460054802915,36.1433075197085,-86.8056497197085,-86.8083476802915
Ferrell Center,Waco,TX,"Ferrell Center, Waco, TX",-97.1057569,31.5479445,premise,rooftop,"ferrell center, waco, tx 76706, usa",31.5495746302915,31.5468766697085,-97.10441606970849,-97.1071140302915
Robins Stadium,Richmond,VA,"Robins Stadium, Richmond, VA",-77.53705289999999,37.5809034,establishment,rooftop,"365 college rd, richmond, va 23173, usa",37.58251858029151,37.57982061970851,-77.53590176970849,-77.5385997302915
BMO Harris Bradley Center,Milwaukee,WI,"BMO Harris Bradley Center, Milwaukee, WI",-87.9184662,43.0438968,establishment,rooftop,"1030 n 6th st, milwaukee, wi 53203, usa",43.0451037802915,43.0424058197085,-87.91730171970849,-87.9199996802915
Cam Henderson Center,Huntington,WV,"Cam Henderson Center, Huntington, WV",-82.4253556,38.4246384,establishment,geometric_center,"huntington, wv 25703, usa",38.4255942302915,38.4228962697085,-82.42414361970849,-82.42684158029151
WVU Coliseum,Morgantown,WV,"WVU Coliseum, Morgantown, WV",-79.9814032,39.649359,establishment,rooftop,"3450 monongahela blvd, morgantown, wv 26505, usa",39.6508624302915,39.6481644697085,-79.9796100697085,-79.98230803029152
Save Mart Center,Fresno,CA,"Save Mart Center, Fresno, CA",-119.7385189,36.8096958,establishment,rooftop,"2650 e shaw ave, fresno, ca 93710, usa",36.8113887302915,36.8086907697085,-119.7371626697085,-119.7398606302915
Hulman Center,Terre Haute,IN,"Hulman Center, Terre Haute, IN",-87.4051228,39.46847959999999,establishment,rooftop,"200 n 8th st, terre haute, in 47809, usa",39.4693855802915,39.4666876197085,-87.4040798197085,-87.4067777802915
Allen Arena,Nashville,TN,"Allen Arena, Nashville, TN",-86.798965,36.1036206,establishment,rooftop,"4021 granny white pike, nashville, tn 37204, usa",36.1052651802915,36.1025672197085,-86.7975614697085,-86.8002594302915
W.S. Hanner Fieldhouse,Statesboro,GA,"W.S. Hanner Fieldhouse, Statesboro, GA",-81.7792142,32.4276436,establishment,rooftop,"590 herty dr, statesboro, ga 30458, usa",32.42882463029151,32.42612666970851,-81.77789066970848,-81.7805886302915
McGrath-Phillips Arena,Chicago,IL,"McGrath-Phillips Arena, Chicago, IL",-87.6534021,41.9238011,establishment,rooftop,"2323 n sheffield ave, chicago, il 60614, usa",41.92536528029149,41.92266731970849,-87.6521361697085,-87.6548341302915
War Memorial at the Sobrato Center,San Francisco,CA,"War Memorial at the Sobrato Center, San Francisco, CA",-122.4495105,37.7768745,establishment,rooftop,"2335 golden gate ave, san francisco, ca 94118, usa",37.7783494302915,37.7756514697085,-122.4483596697085,-122.4510576302915
Kimbel Arena,Conway,SC,"Kimbel Arena, Conway, SC",-79.01325150000001,33.7938462,establishment,rooftop,"105 independence dr, conway, sc 29526, usa",33.7952987302915,33.7926007697085,-79.0116240697085,-79.01432203029151
Strahan Arena at the University Events Center,San Marcos,TX,"Strahan Arena at the University Events Center, San Marcos, TX",-97.9405589,29.882723,establishment,geometric_center,"the square, san marcos, tx 78666, usa",29.8838510302915,29.8811530697085,-97.9392437197085,-97.9419416802915
Dee Glen Smith Spectrum,Logan,UT,"Dee Glen Smith Spectrum, Logan, UT",-111.8116607,41.7476119,establishment,rooftop,"900 e 900 n, logan, ut 84322, usa",41.7489956302915,41.7462976697085,-111.8100244697085,-111.8127224302915
Coleman Coliseum,Tuscaloosa,AL,"Coleman Coliseum, Tuscaloosa, AL",-87.53969049999999,33.202963,establishment,rooftop,"1201 coliseum dr, tuscaloosa, al 35401, usa",33.20429798029149,33.2016000197085,-87.53797511970849,-87.5406730802915
State Farm Center,Champaign,IL,"State Farm Center, Champaign, IL",-88.2359042,40.0962531,establishment,rooftop,"1800 s 1st st, champaign, il 61820, usa",40.0979126,40.094612,-88.2334729,-88.23686699999999
Clune Arena,Colorado Springs,CO,"Clune Arena, Colorado Springs, CO",-104.8837275,39.0137385,establishment,rooftop,"cadet field house, 2169 field house dr, air force academy, co 80840, usa",39.0146973302915,39.01199936970851,-104.8823719697085,-104.8850699302915
Holmes Convocation Center,Boone,NC,"Holmes Convocation Center, Boone, NC",-81.6762095,36.2111835,establishment,rooftop,"111 rivers st, boone, nc 28608, usa",36.21267348029149,36.20997551970849,-81.67492826970849,-81.6776262302915
Alumni Arena,Buffalo,NY,"Alumni Arena, Buffalo, NY",-78.7811679,43.0001109,premise,rooftop,"alumni arena, buffalo, ny 14228, usa",43.0013378302915,42.9986398697085,-78.7799387697085,-78.7826367302915
John W. Pope Jr. Convocation Center,Buies Creek,NC,"John W. Pope Jr. Convocation Center, Buies Creek, NC",-78.73676569999999,35.4078497,establishment,geometric_center,"56 main street nc, buies creek, nc 27506, usa",35.4090560802915,35.4063581197085,-78.73593061970848,-78.7386285802915
John M. Belk Arena,Davidson,NC,"John M. Belk Arena, Davidson, NC",-80.8403139,35.4993221,establishment,rooftop,"200 baker dr, davidson, nc 28035, usa",35.5006663802915,35.4979684197085,-80.83874806970849,-80.84144603029151
Magness Arena,Denver,CO,"Magness Arena, Denver, CO",-104.9616342,39.68212219999999,establishment,rooftop,"2250 e jewell ave, denver, co 80208, usa",39.6838549802915,39.6811570197085,-104.9604618697085,-104.9631598302915
Calihan Hall,Detroit,MI,"Calihan Hall, Detroit, MI",-83.1360608,42.41436789999999,establishment,rooftop,"calihan hall, 4001 w mcnichols rd, detroit, mi 48221, usa",42.4159608302915,42.4132628697085,-83.13459701970851,-83.13729498029151
Convocation Center (MI),Ypsilanti,MI,"Convocation Center (MI), Ypsilanti, MI",-83.6472321,42.2541656,establishment,rooftop,"799 n hewitt rd, ypsilanti, mi 48197, usa",42.2557903302915,42.2530923697085,-83.6463180697085,-83.6490160302915
Titan Gym,Fullerton,CA,"Titan Gym, Fullerton, CA",-117.8860792,33.8831105,establishment,geometric_center,"fullerton, ca 92831, usa",33.8847051802915,33.8820072197085,-117.8850277197085,-117.8877256802915
EagleBank Arena,Fairfax,VA,"EagleBank Arena, Fairfax, VA",-77.30967299999999,38.8268505,establishment,rooftop,"4500 patriot cir, fairfax, va 22030, usa",38.82852148029151,38.82582351970851,-77.30532430000001,-77.3113743
McCarthey Athletic Center,Spokane,WA,"McCarthey Athletic Center, Spokane, WA",-117.3991759,47.6653821,establishment,rooftop,"mccarthey athletic center, 801 n cincinnati st, spokane, wa 99258, usa",47.66634833029149,47.66365036970849,-117.3975425197085,-117.4002404802915
David S. Mack Sports and Exhibition Complex,Hempstead,NY,"David S. Mack Sports and Exhibition Complex, Hempstead, NY",-73.5968515,40.7197194,establishment,rooftop,"245, hofstra university, hempstead, ny 11549, usa",40.7212841302915,40.7185861697085,-73.59562121970849,-73.59831918029151
Carver-Hawkeye Arena,Iowa City,IA,"Carver-Hawkeye Arena, Iowa City, IA",-91.5546047,41.663778,establishment,rooftop,"1 elliott dr, iowa city, ia 52242, usa",41.6647372302915,41.6620392697085,-91.55338036970849,-91.5560783302915
Allen Fieldhouse,Lawrence,KS,"Allen Fieldhouse, Lawrence, KS",-95.25277779999999,38.95416669999999,establishment,rooftop,"1651 naismith dr, lawrence, ks 66044, usa",38.9553348802915,38.9526369197085,-95.25105476970849,-95.25375273029151
Bramlage Coliseum,Manhattan,KS,"Bramlage Coliseum, Manhattan, KS",-96.5937885,39.2003598,establishment,rooftop,"1800 college ave, manhattan, ks 66502, usa",39.2018322302915,39.1991342697085,-96.5923159,-96.59524449999999
Montagne Center,Beaumont,TX,"Montagne Center, Beaumont, TX",-94.07071450000001,30.0442788,establishment,rooftop,"4401 s m l king jr pkwy, beaumont, tx 77705, usa",30.0454173302915,30.0427193697085,-94.0696706697085,-94.0723686302915
Tom Gola Arena,Philadelphia,PA,"Tom Gola Arena, Philadelphia, PA",-75.1562158,40.0400211,establishment,geometric_center,"w olney ave, philadelphia, pa 19144, usa",40.0411464302915,40.0384484697085,-75.1551025697085,-75.15780053029151
Vines Convocation Center,Lynchburg,VA,"Vines Convocation Center, Lynchburg, VA",-79.1810631,37.3489165,establishment,rooftop,"1971 university blvd, lynchburg, va 24502, usa",37.3499763802915,37.3472784197085,-79.17940226970849,-79.18210023029151
Willett Hall,Farmville,VA,"Willett Hall, Farmville, VA",-78.3957004,37.2975417,establishment,geometric_center,"spruce st, farmville, va 23909, usa",37.29891843029149,37.2962204697085,-78.39400386970848,-78.3967018302915
RAC Arena,Baltimore,MD,"RAC Arena, Baltimore, MD",-76.7125458,39.2528573,establishment,rooftop,"retriever activities center, 1000 hilltop cir, baltimore, md 21250, usa",39.2540206802915,39.2513227197085,-76.7116809197085,-76.71437888029152
Murphy Center,Murfreesboro,TN,"Murphy Center, Murfreesboro, TN",-86.36945469999999,35.8523923,premise,rooftop,"murphy center, 2650 middle tennessee blvd, murfreesboro, tn 37132, usa",35.8535598302915,35.8508618697085,-86.3680980197085,-86.3707959802915
Dale F. Halton Arena,Charlotte,NC,"Dale F. Halton Arena, Charlotte, NC",-80.7344525,35.306403,establishment,rooftop,"barnhardt student activity center, 9201 university city blvd #202, charlotte, nc 28223, usa",35.3075590302915,35.3048610697085,-80.73340486970848,-80.7361028302915
Thomas & Mack Center,Las Vegas,NV,"Thomas & Mack Center, Las Vegas, NV",NA,NA,NA,NA,NA,NA,NA,NA,NA
Lawlor Events Center,Reno,NV,"Lawlor Events Center, Reno, NV",-119.8183072,39.54508,establishment,rooftop,"1664 n virginia st, reno, nv 89557, usa",39.5459615802915,39.5432636197085,-119.8167377197085,-119.8194356802915
Prather Coliseum,Natchitoches,LA,"Prather Coliseum, Natchitoches, LA",-93.0951676,31.7440418,establishment,rooftop,"220 s jefferson st, natchitoches, la 71457, usa",31.7451705302915,31.7424725697085,-93.09367106970848,-93.0963690302915
Ross E. Templeton P.E. Center,Clinton,SC,"Ross E. Templeton P.E. Center, Clinton, SC",-81.86898529999999,34.4650766,establishment,geometric_center,"5th ave, clinton, sc 29325, usa",34.46651043029149,34.4638124697085,-81.86738801970851,-81.87008598029152
Mackey Arena,West Lafayette,IN,"Mackey Arena, West Lafayette, IN",-86.9161119,40.4333173,establishment,rooftop,"900 john r wooden dr, west lafayette, in 47907, usa",40.4343586302915,40.4316606697085,-86.91497261970851,-86.91767058029151
Mohegan Sun Arena,Uncasville,CT,"Mohegan Sun Arena, Uncasville, CT",-72.0903866,41.4917972,bar,rooftop,"1 mohegan sun blvd, montville, ct 06382, usa",41.4926574,41.4890597,-72.08550559999999,-72.0961951
Donald N. Dedmon Center,Radford,VA,"Donald N. Dedmon Center, Radford, VA",-80.5415921,37.1384569,establishment,rooftop,"101 university dr, radford, va 24141, usa",37.1401421802915,37.1374442197085,-80.5400307197085,-80.54272868029152
Charles L. Sewall Center,Moon Township,PA,"Charles L. Sewall Center, Moon Township, PA",-80.2147729,40.5203101,establishment,geometric_center,"moon twp, pa 15108, usa",40.5217059802915,40.5190080197085,-80.21284761970851,-80.21554558029152
The Thunderdome,Santa Barbara,CA,"The Thunderdome, Santa Barbara, CA",-119.8513391,34.4137004,establishment,rooftop,"events center, isla vista, ca 93117, usa",34.41536268029149,34.41266471970849,-119.8502369697085,-119.8529349302915
Leavey Center,Santa Clara,CA,"Leavey Center, Santa Clara, CA",-121.9351939,37.3491615,establishment,rooftop,"leavey event center, santa clara, ca 95053, usa",37.3506524802915,37.3479545197085,-121.9334880697085,-121.9361860302915
Moody Coliseum,Dallas,TX,"Moody Coliseum, Dallas, TX",-96.7807306,32.8403905,establishment,rooftop,"3009 binkley ave, dallas, tx 75205, usa",32.8420099302915,32.8393119697085,-96.7796347197085,-96.7823326802915
S-H-M Memorial Center,Orangeburg,SC,"S-H-M Memorial Center, Orangeburg, SC",-80.846515,33.5010199,establishment,rooftop,"200 buckley st, orangeburg, sc 29115, usa",33.5021775802915,33.4994796197085,-80.8450428697085,-80.8477408302915
Colonial Life Arena,Columbia,SC,"Colonial Life Arena, Columbia, SC",-81.0371971,33.9948495,establishment,rooftop,"801 lincoln st, columbia, sc 29201, usa",33.9958835802915,33.9931856197085,-81.0355094697085,-81.03820743029151
F. G. Clark Activity Center,Baton Rouge,LA,"F. G. Clark Activity Center, Baton Rouge, LA",-91.18555579999999,30.522003,establishment,geometric_center,"baton rouge, la 70813, usa",30.5234847,30.5205043,-91.1847711197085,-91.1874690802915
University Credit Union Pavilion,Moraga,CA,"University Credit Union Pavilion, Moraga, CA",-122.1064498,37.8412834,establishment,rooftop,"1928 saint mary’s road, moraga, ca 94575, usa",37.8426843302915,37.83998636970851,-122.1048905197085,-122.1075884802915
William R. Johnson Coliseum,Nacogdoches,TX,"William R. Johnson Coliseum, Nacogdoches, TX",-94.64081499999999,31.6222899,establishment,rooftop,"700 e college st, nacogdoches, tx 75964, usa",31.6241328802915,31.6214349197085,-94.63955086970849,-94.64224883029149
Ed and Rae Schollmaier Arena,Fort Worth,TX,"Ed and Rae Schollmaier Arena, Fort Worth, TX",-97.36671419999999,32.7088144,establishment,rooftop,"3000 stadium dr, fort worth, tx 76109, usa",32.71065413029149,32.7079561697085,-97.36505271970849,-97.3677506802915
Thompson-Boling Arena,Knoxville,TN,"Thompson-Boling Arena, Knoxville, TN",-83.9250359,35.9511794,establishment,rooftop,"1600 phillip fulmer way #202, knoxville, tn 37996, usa",35.95240363029149,35.9497056697085,-83.92433656970849,-83.92703453029151
Don Haskins Center,El Paso,TX,"Don Haskins Center, El Paso, TX",-106.5056719,31.7776195,establishment,rooftop,"151 glory rd, el paso, tx 79902, usa",31.7787836302915,31.7760856697085,-106.5044092197085,-106.5071071802915
United Supermarkets Arena,Lubbock,TX,"United Supermarkets Arena, Lubbock, TX",-101.886563,33.581334,establishment,rooftop,"1701 indiana ave, lubbock, tx 79409, usa",33.5835059,33.5804844,-101.8853211197085,-101.8880190802915
Avron B. Fogelman Arena in the Devlin Fieldhouse,New Orleans,LA,"Avron B. Fogelman Arena in the Devlin Fieldhouse, New Orleans, LA",-90.12082040000001,29.939013,establishment,rooftop,"6811 freret st, new orleans, la 70118, usa",29.9401312302915,29.9374332697085,-90.1193400697085,-90.1220380302915
Stuart C. Siegel Center,Richmond,VA,"Stuart C. Siegel Center, Richmond, VA",-77.4529235,37.5529069,establishment,rooftop,"1200 w broad st, richmond, va 23284, usa",37.5539326802915,37.5512347197085,-77.4515272197085,-77.4542251802915
Dee Events Center,Ogden,UT,"Dee Events Center, Ogden, UT",-111.9450635,41.18238179999999,premise,rooftop,"dee events center, 4400 harrison blvd, ogden, ut 84403, usa",41.1837548802915,41.1810569197085,-111.9442427697085,-111.9469407302915
Cintas Center,Cincinnati,OH,"Cintas Center, Cincinnati, OH",-84.4718571,39.1503531,establishment,rooftop,"1624 musketeer dr, cincinnati, oh 45207, usa",39.1513671302915,39.1486691697085,-84.4700205697085,-84.4727185302915
UCCU Center,Orem,UT,"UCCU Center, Orem, UT",-111.7170486,40.2786407,establishment,rooftop,"800 w university pkwy, orem, ut 84097, usa",40.2799765802915,40.2772786197085,-111.7158398697085,-111.7185378302915
Robert A. Mott Athletics Center,San Luis Obispo,CA,"Robert A. Mott Athletics Center, San Luis Obispo, CA",-120.6587313,35.2987292,establishment,rooftop,"robert e. mott physical education, 1 grand ave, san luis obispo, ca 93405, usa",35.30007818029149,35.29738021970849,-120.6573823197085,-120.6600802802915
Capital One Arena,Washington,DC,"Capital One Arena, Washington, DC",-77.02085679999999,38.8981675,establishment,rooftop,"601 f st nw, washington, dc 20004, usa",38.8993614302915,38.8966634697085,-77.0195671197085,-77.0222650802915
Bob Martinez Sports Center,Tampa,FL,"Bob Martinez Sports Center, Tampa, FL",-82.4687179,27.9471694,establishment,rooftop,"400 n blvd, tampa, fl 33606, usa",27.9484943302915,27.9457963697085,-82.46727611970852,-82.46997408029152
James H. Hilton Coliseum,Ames,IA,"James H. Hilton Coliseum, Ames, IA",-93.6348209,42.0210089,establishment,rooftop,"1705 center dr, ames, ia 50011, usa",42.0228042302915,42.0201062697085,-93.6335111697085,-93.6362091302915
Banterra Center,Carbondale,IL,"Banterra Center, Carbondale, IL",-89.21871159999999,37.7083282,establishment,rooftop,"1400 arena dr, carbondale, il 62901, usa",37.7094917302915,37.7067937697085,-89.21773621970848,-89.22043418029149
Purcell Pavilion,South Bend,IN,"Purcell Pavilion, South Bend, IN",-86.23134379999999,41.6984161,establishment,rooftop,"113 joyce center, notre dame, in 46556, usa",41.69907978029151,41.69638181970851,-86.22995406970848,-86.23265203029149
Pete Maravich Assembly Center,Baton Rouge,LA,"Pete Maravich Assembly Center, Baton Rouge, LA",-91.1846265,30.4142761,establishment,geometric_center,"n stadium dr, baton rouge, la 70802, usa",30.4153345302915,30.4126365697085,-91.1832272697085,-91.1859252302915
Jadwin Gymnasium,Princeton,NJ,"Jadwin Gymnasium, Princeton, NJ",-74.6486685,40.3434557,establishment,rooftop,"jadwin gymnasium, princeton, nj 08540, usa",40.3450475302915,40.3423495697085,-74.6476014197085,-74.6502993802915
JMA Wireless Dome,Syracuse,NY,"JMA Wireless Dome, Syracuse, NY",-76.1362931,43.036233,establishment,rooftop,"900 irving ave, syracuse, ny 13244, usa",43.0375907302915,43.0348927697085,-76.1354248,-76.1381748
Gill Coliseum,Corvallis,OR,"Gill Coliseum, Corvallis, OR",-123.2805695,44.5612609,establishment,rooftop,"660 sw 26th st, corvallis, or 97331, usa",44.5626243302915,44.5599263697085,-123.2787552197085,-123.2814531802915
Bryce Jordan Center,University Park,PA,"Bryce Jordan Center, University Park, PA",-77.85546389999999,40.8085471,establishment,rooftop,"720 curtin rd, state college, pa 16801, usa",40.8102964802915,40.8075985197085,-77.8544247697085,-77.85712273029151
Tudor Fieldhouse,Houston,TX,"Tudor Fieldhouse, Houston, TX",-95.4038942,29.7152585,establishment,rooftop,"6100 main st, houston, tx 77005, usa",29.7167720802915,29.7140741197085,-95.40261551970848,-95.40531348029148
Fertitta Center,Houston,TX,"Fertitta Center, Houston, TX",-95.3469221,29.7246943,establishment,rooftop,"houston, tx 77204, usa",29.7262165302915,29.7235185697085,-95.3461546697085,-95.34885263029152
Cassell Coliseum,Blacksburg,VA,"Cassell Coliseum, Blacksburg, VA",-80.4194377,37.2228952,establishment,rooftop,"675 washington st sw, blacksburg, va 24061, usa",37.2239184302915,37.2212204697085,-80.4181104697085,-80.4208084302915
Alaska Airlines Arena,Seattle,WA,"Alaska Airlines Arena, Seattle, WA",-122.3021452,47.65206540000001,establishment,rooftop,"3870 montlake blvd ne, seattle, wa 98105, usa",47.6536841302915,47.6509861697085,-122.3012130197085,-122.3039109802915
UW-Milwaukee Panther Arena,Milwaukee,WI,"UW-Milwaukee Panther Arena, Milwaukee, WI",-87.9168359,43.0422275,establishment,rooftop,"400 w kilbourn ave, milwaukee, wi 53203, usa",43.0432449802915,43.0405470197085,-87.91539186970849,-87.91808983029149
Kohl Center,Madison,WI,"Kohl Center, Madison, WI",-89.3969716,43.0694893,establishment,rooftop,"601 w dayton st, madison, wi 53703, usa",43.07154308029151,43.06884511970851,-89.39527286970849,-89.3979708302915
Chartway Arena,Norfolk,VA,"Chartway Arena, Norfolk, VA",-76.30136449999999,36.8841885,establishment,rooftop,"4320 hampton blvd, norfolk, va 23529, usa",36.8855033302915,36.8828053697085,-76.30049376970848,-76.3031917302915
Walter Pyramid,Long Beach,CA,"Walter Pyramid, Long Beach, CA",-118.1143892,33.7873979,establishment,rooftop,"1250 n bellflower blvd, long beach, ca 90840, usa",33.78851583029151,33.78581786970851,-118.1134541197085,-118.1161520802915
Ford Center,Evansville,IN,"Ford Center, Evansville, IN",-87.56783689999999,37.9721305,establishment,rooftop,"1 se martin luther king jr blvd, evansville, in 47708, usa",37.97307268029149,37.9703747197085,-87.56647101970849,-87.5691689802915
James A. Rhodes Arena,Akron,OH,"James A. Rhodes Arena, Akron, OH",-81.50880529999999,41.075549,establishment,rooftop,"373 carroll st, akron, oh 44325, usa",41.0767741802915,41.0740762197085,-81.5074294697085,-81.5101274302915
CFE Federal Credit Union Arena,Orlando,FL,"CFE Federal Credit Union Arena, Orlando, FL",-81.46083200000001,28.452741,establishment,rooftop,"5950 lakehurst dr #101, orlando, fl 32819, usa",28.45418533029151,28.4514873697085,-81.45962696970851,-81.46232493029152
McGuirk Arena,Mount Pleasant,MI,"McGuirk Arena, Mount Pleasant, MI",-84.77404849999999,43.5814982,establishment,rooftop,"360 e broomfield st, mt pleasant, mi 48858, usa",43.5831792802915,43.5804813197085,-84.77251926970848,-84.7752172302915
UD Arena,Dayton,OH,"UD Arena, Dayton, OH",-84.1997159,39.7356112,establishment,rooftop,"1801 s edwin c moses blvd, dayton, oh 45417, usa",39.7368494302915,39.7341514697085,-84.19859491970848,-84.20129288029149
"Memorial Hall (Dover, DE)",Dover,DE,"Memorial Hall (Dover, DE), Dover, DE",-75.5432332,39.1873269,establishment,rooftop,"dover, de 19901, usa",39.1886855802915,39.1859876197085,-75.5418861197085,-75.5445840802915
The Knapp Center,Des Moines,IA,"The Knapp Center, Des Moines, IA",-93.65225339999999,41.6046965,establishment,rooftop,"2601 forest ave, des moines, ia 50311, usa",41.6057206802915,41.6030227197085,-93.65086051970849,-93.65355848029151
Convocation Center (VA),Hampton,VA,"Convocation Center (VA), Hampton, VA",-76.331,37.0199,establishment,rooftop,"700 emancipation dr, hampton, va 23668, usa",37.02150418029149,37.0188062197085,-76.3296278197085,-76.33232578029151
Millis Athletic and Convocation Center,High Point,NC,"Millis Athletic and Convocation Center, High Point, NC",-79.9957896,35.9736379,establishment,rooftop,"922 panther dr, high point, nc 27262, usa",35.9748193802915,35.9721214197085,-79.9946020697085,-79.99730003029151
Draddy Gymnasium,Riverdale,NY,"Draddy Gymnasium, Riverdale, NY",-73.9002497,40.89078,premise,rooftop,"draddy gymnasium, 4513 manhattan college pkwy, bronx, ny 10471, usa",40.89213193029149,40.88943396970849,-73.89892861970849,-73.9016265802915
Hawkins Arena,Macon,GA,"Hawkins Arena, Macon, GA",-83.6518573,32.8288941,establishment,rooftop,"university center, 1400 coleman ave, macon, ga 31207, usa",32.8302430802915,32.8275451197085,-83.650508319708507,-83.65320628029151
Bank of Colorado Arena,Greeley,CO,"Bank of Colorado Arena, Greeley, CO",-104.7026972,40.4020822,establishment,rooftop,"butler-hancock athletics center, 270 alles dr d, greeley, co 80631, usa",40.4036235302915,40.4009255697085,-104.7018521697085,-104.7045501302915
Firestone Fieldhouse,Malibu,CA,"Firestone Fieldhouse, Malibu, CA",-118.7096946,34.0385192,premise,rooftop,"firestone fieldhouse, 24225 e pacific coast hwy, malibu, ca 90265, usa",34.03982343029149,34.03712546970849,-118.7084089697085,-118.7111069302915
Amica Mutual Pavilion,Providence,RI,"Amica Mutual Pavilion, Providence, RI",-71.4179556,41.8236281,establishment,rooftop,"1 la salle square, providence, ri 02903, usa",41.8245909302915,41.8218929697085,-71.4161189197085,-71.4188168802915
Pete Hanna Center,Homewood,AL,"Pete Hanna Center, Homewood, AL",-86.79716669999999,33.4638283,premise,rooftop,"pete hanna center, homewood, al 35209, usa",33.4651729302915,33.4624749697085,-86.79612256970849,-86.79882053029151
Frost Arena,Brookings,SD,"Frost Arena, Brookings, SD",-96.77915089999999,44.3183065,premise,rooftop,"stanley j. marshall center, brookings, sd 57006, usa",44.3196579302915,44.3169599697085,-96.7776683197085,-96.7803662802915
Reed Green Coliseum,Hattiesburg,MS,"Reed Green Coliseum, Hattiesburg, MS",-89.3379389,31.3310009,establishment,geometric_center,"m.k. turk cir, hattiesburg, ms 39406, usa",31.33237378029149,31.3296758197085,-89.3361401197085,-89.33883808029151
Winthrop Coliseum,Rock Hill,SC,"Winthrop Coliseum, Rock Hill, SC",-81.0149285,34.9481381,establishment,rooftop,"1162 eden terrace, rock hill, sc 29730, usa",34.9491646802915,34.9464667197085,-81.0140719697085,-81.0167699302915
Arena Auditorium,Laramie,WY,"Arena Auditorium, Laramie, WY",-105.5694365,41.31334100000001,establishment,geometric_center,"university of wyoming, laramie, wy 82072, usa",41.31447033029151,41.31177236970851,-105.5676579197085,-105.5703558802915
Carver Arena,Peoria,IL,"Carver Arena, Peoria, IL",-89.5939612,40.69169369999999,establishment,rooftop,"201 sw jefferson ave, peoria, il 61602, usa",40.6928303802915,40.6901324197085,-89.59277966970849,-89.5954776302915
Welsh-Ryan Arena,Evanston,IL,"Welsh-Ryan Arena, Evanston, IL",-87.6924667,42.0668144,establishment,rooftop,"2705 ashland ave, evanston, il 60208, usa",42.06797488029149,42.0652769197085,-87.69134101970849,-87.6940389802915
XFINITY Center,College Park,MD,"XFINITY Center, College Park, MD",-76.94180639999999,38.9957391,establishment,rooftop,"8500 paint branch dr, college park, md 20740, usa",38.9965919302915,38.9938939697085,-76.94016576970849,-76.94286373029149
Convocation Center (OH),Athens,OH,"Convocation Center (OH), Athens, OH",-82.10557960000001,39.3232458,establishment,rooftop,"95 richland ave, athens, oh 45701, usa",39.3245295802915,39.3218316197085,-82.1037297197085,-82.10642768029152
Frank Erwin Center,Austin,TX,"Frank Erwin Center, Austin, TX",-97.732185,30.2769359,establishment,rooftop,"1701 red river st, austin, tx 78701, usa",30.2784292802915,30.2757313197085,-97.7313448197085,-97.7340427802915
JMU Convocation Center,Harrisonburg,VA,"JMU Convocation Center, Harrisonburg, VA",-78.86876450000001,38.4318774,establishment,rooftop,"convocation center, 895 university blvd, harrisonburg, va 22807, usa",38.43290218029149,38.43020421970849,-78.8676182697085,-78.87031623029152
John Paul Jones Arena,Charlottesville,VA,"John Paul Jones Arena, Charlottesville, VA",-78.5067583,38.04595279999999,establishment,rooftop,"295 massie rd, charlottesville, va 22903, usa",38.0467894302915,38.0440914697085,-78.50597346970848,-78.5086714302915
Alex G. Spanos Center,Stockton,CA,"Alex G. Spanos Center, Stockton, CA",-121.3151069,37.9766653,establishment,rooftop,"1178 larry heller dr, stockton, ca 95211, usa",37.9778439802915,37.9751460197085,-121.3143173197085,-121.3170152802915
Jack Stephens Center,Little Rock,AR,"Jack Stephens Center, Little Rock, AR",-92.34049979999999,34.7283805,establishment,rooftop,"s university ave, little rock, ar 72204, usa",34.7297642802915,34.7270663197085,-92.3390525697085,-92.3417505302915
Fifth Third Arena,Cincinnati,OH,"Fifth Third Arena, Cincinnati, OH",-84.5141067,39.131163,establishment,rooftop,"2700 o'varsity way, cincinnati, oh 45221, usa",39.1325119802915,39.1298140197085,-84.51275771970849,-84.5154556802915
UPMC Cooper Fieldhouse,Pittsburgh,PA,"UPMC Cooper Fieldhouse, Pittsburgh, PA",-79.98783089999999,40.4372553,establishment,rooftop,"1304 forbes ave, pittsburgh, pa 15282, usa",40.4387621302915,40.4360641697085,-79.9866585697085,-79.98935653029152
Thomas Assembly Center,Ruston,LA,"Thomas Assembly Center, Ruston, LA",-92.65858279999999,32.5320633,establishment,rooftop,"1620-1810 e martin luther king jr ave, ruston, la 71270, usa",32.53321698029149,32.53051901970849,-92.65744121970847,-92.66013918029148
Gersten Pavilion,Los Angeles,CA,"Gersten Pavilion, Los Angeles, CA",-118.4156713,33.9677237,establishment,rooftop,"1 loyola marymount university dr, los angeles, ca 90045, usa",33.9691177802915,33.9664198197085,-118.4146730197085,-118.4173709802915
Alumni Hall (Navy),Annapolis,MD,"Alumni Hall (Navy), Annapolis, MD",-76.48773589999999,38.9845155,establishment,rooftop,"675 decatur rd, annapolis, md 21402, usa",38.9856491802915,38.9829512197085,-76.48664681970848,-76.4893447802915
Kimmel Arena,Asheville,NC,"Kimmel Arena, Asheville, NC",-82.56880489999999,35.6180511,establishment,rooftop,"the sherrill center and kimmell arena, 227 campus dr, asheville, nc 28804, usa",35.61962588029149,35.61692791970849,-82.56762771970848,-82.57032568029149
McDougald-McLendon Arena,Durham,NC,"McDougald-McLendon Arena, Durham, NC",-78.8977563,35.9758995,establishment,rooftop,"700 e lawson st, durham, nc 27701, usa",35.9775124302915,35.9748144697085,-78.89640656970849,-78.8991045302915
William Nicks Building,Prairie View,TX,"William Nicks Building, Prairie View, TX",-95.99305539999999,30.0922526,establishment,geometric_center,"prairie view, tx 77445, usa",30.0936424802915,30.0909445197085,-95.99194131970849,-95.99463928029151
Charles Koch Arena,Wichita,KS,"Charles Koch Arena, Wichita, KS",-97.29734479999999,37.7218564,establishment,rooftop,"1845 fairmount st, wichita, ks 67260, usa",37.7228197802915,37.7201218197085,-97.2963374697085,-97.29903543029151
Benjamin Johnson Arena,Spartanburg,SC,"Benjamin Johnson Arena, Spartanburg, SC",-81.93279609999999,34.9603939,establishment,geometric_center,"spartanburg, sc 29306, usa",34.9617802802915,34.9590823197085,-81.93154366970849,-81.9342416302915
Nutter Center,Dayton,OH,"Nutter Center, Dayton, OH",-84.0522812,39.7820712,establishment,rooftop,"3640 colonel glenn hwy, fairborn, oh 45324, usa",39.78356848029149,39.78087051970849,-84.0507681,-84.0536545
Provident Credit Union Event Center,San Jose,CA,"Provident Credit Union Event Center, San Jose, CA",-121.8800999,37.3352193,establishment,rooftop,"290 s 7th st, san jose, ca 95112, usa",37.3361549802915,37.3334570197085,-121.8791416697085,-121.8818396302915
Burr Gymnasium,Washington,DC,"Burr Gymnasium, Washington, DC",-77.02209400000001,38.9263793,premise,rooftop,"burr gymnasium, washington, dc 20001, usa",38.9277033302915,38.9250053697085,-77.02071261970848,-77.0234105802915
Al Lawson Center,Tallahassee,FL,"Al Lawson Center, Tallahassee, FL",-84.29055319999999,30.4242136,establishment,rooftop,"1800 wahnish way, tallahassee, fl 32310, usa",30.4256912302915,30.42299326970851,-84.28882461970849,-84.2915225802915
Amalie Arena,Tampa,FL,"Amalie Arena, Tampa, FL",-82.4517771,27.9427373,establishment,rooftop,"401 channelside dr, tampa, fl 33602, usa",27.9440272302915,27.9413292697085,-82.45072596970849,-82.4534239302915
Memorial Gymnasium (ID),Moscow,ID,"Memorial Gymnasium (ID), Moscow, ID",-117.0139153,46.7265482,premise,rooftop,"memorial gym, 1001 university ave, moscow, id 83844, usa",46.7278646802915,46.7251667197085,-117.0125902197085,-117.0152881802915
Silvio O. Conte Forum,Chestnut Hill,MA,"Silvio O. Conte Forum, Chestnut Hill, MA",-71.1677143,42.3350662,establishment,rooftop,"140 commonwealth ave, chestnut hill, ma 02467, usa",42.3368249302915,42.3341269697085,-71.16642951970849,-71.1691274802915
Dahlberg Arena,Missoula,MT,"Dahlberg Arena, Missoula, MT",-113.9833389,46.8640171,establishment,geometric_center,"university of montana, missoula, mt 59812, usa",46.86527418029149,46.86257621970849,-113.9824438197085,-113.9851417802915
Francis S. Levien Gymnasium,New York,NY,"Francis S. Levien Gymnasium, New York, NY",-73.96182569999999,40.810242,establishment,rooftop,"3030 broadway, new york, ny 10027, usa",40.8115999802915,40.8089020197085,-73.96036351970851,-73.96306148029151
The Palestra,Philadelphia,PA,"The Palestra, Philadelphia, PA",-75.1887032,39.9513911,establishment,rooftop,"223 s 33rd st, philadelphia, pa 19104, usa",39.9527160302915,39.9500180697085,-75.1870624197085,-75.1897603802915
Texas Hall,Arlington,TX,"Texas Hall, Arlington, TX",-97.11570770000002,32.7296999,establishment,rooftop,"701 w nedderman dr, arlington, tx 76010, usa",32.7310832302915,32.7283852697085,-97.1147097697085,-97.11740773029152
Jon M. Huntsman Center,Salt Lake City,UT,"Jon M. Huntsman Center, Salt Lake City, UT",-111.8387491,40.7620587,establishment,rooftop,"1825 s campus dr, salt lake city, ut 84112, usa",40.7631696302915,40.7604716697085,-111.8371941697085,-111.8398921302915
Jenny Craig Pavilion,San Diego,CA,"Jenny Craig Pavilion, San Diego, CA",-117.1837806,32.7744376,premise,rooftop,"jenny craig pavilion, 5998 alcala park way, san diego, ca 92111, usa",32.77575038029151,32.77305241970851,-117.1823842197085,-117.1850821802915
Harold Alfond Arena,Orono,ME,"Harold Alfond Arena, Orono, ME",-68.673649,44.9045596,establishment,geometric_center,"tunk rd, orono, me 04473, usa",44.90585833029149,44.90316036970849,-68.6719391197085,-68.6746370802915
Gallagher Center,Niagara Falls,NY,"Gallagher Center, Niagara Falls, NY",-79.03813389999999,43.1370245,establishment,geometric_center,"niagara university, niagara university 5795 lewiston rd, 6 varsity drive, lewiston, ny 14109, usa",43.1387361802915,43.1360382197085,-79.03672686970849,-79.03942483029151
American Bank Center,Corpus Christi,TX,"American Bank Center, Corpus Christi, TX",-97.3937165,27.8084147,establishment,rooftop,"1901 n shoreline blvd, corpus christi, tx 78401, usa",27.8100898302915,27.8073918697085,-97.39209121970849,-97.3947891802915
Alico Arena,Fort Myers,FL,"Alico Arena, Fort Myers, FL",-81.76466500000001,26.4710946,establishment,rooftop,"12181 fgcu lake pkwy e, fort myers, fl 33913, usa",26.4721412802915,26.46944331970849,-81.7633219197085,-81.76601988029151
Total Mortgage Arena,Bridgeport,CT,"Total Mortgage Arena, Bridgeport, CT",-73.1870019,41.1732434,establishment,rooftop,"600 main st, bridgeport, ct 06604, usa",41.17441283029149,41.1717148697085,-73.18658241970849,-73.18928038029149
Sharp Gymnasium,Houston,TX,"Sharp Gymnasium, Houston, TX",-95.51698789999999,29.6950042,establishment,rooftop,"7502 fondren rd, houston, tx 77074, usa",29.6965079302915,29.6938099697085,-95.51552056970849,-95.51821853029149
Reitz Arena,Baltimore,MD,"Reitz Arena, Baltimore, MD",-76.61822409999999,39.3468384,establishment,rooftop,"4501 n charles st, baltimore, md 21210, usa",39.34798773029149,39.34528976970849,-76.61822409999999,-76.6222885
Hytche Athletic Center,Princess Anne,MD,"Hytche Athletic Center, Princess Anne, MD",-75.6872167,38.21137100000001,establishment,geometric_center,"college backbone rd, princess anne, md 21853, usa",38.21285433029151,38.21015636970851,-75.68600756970848,-75.6887055302915
Hill Field House,Baltimore,MD,"Hill Field House, Baltimore, MD",-76.5852961,39.342424,establishment,rooftop,"1700 e cold spring ln, baltimore, md 21251, usa",39.3457991,39.342424,-76.5841314197085,-76.5868293802915
Fant-Ewing Coliseum,Monroe,LA,"Fant-Ewing Coliseum, Monroe, LA",-92.069453,32.5310438,establishment,rooftop,"4099 northeast dr, monroe, la 71203, usa",32.5324544802915,32.5297565197085,-92.06816711970849,-92.0708650802915
UNF Arena,Jacksonville,FL,"UNF Arena, Jacksonville, FL",-81.5079346,30.2734356,establishment,rooftop,"11852 unf dr., jacksonville, fl 32224, usa",30.2745241302915,30.2718261697085,-81.50655061970849,-81.5092485802915
NIU Convocation Center,Dekalb,IL,"NIU Convocation Center, Dekalb, IL",-88.78530880000001,41.9355125,establishment,rooftop,"1525 w lincoln hwy, dekalb, il 60115, usa",41.9367146302915,41.9340166697085,-88.7842107697085,-88.78690873029151
Show Me Center,Cape Girardeau,MO,"Show Me Center, Cape Girardeau, MO",-89.5273982,37.3199621,establishment,rooftop,"1333 n sprigg st, cape girardeau, mo 63701, usa",37.3212815802915,37.3185836197085,-89.52548676970848,-89.5281847302915
DeGol Arena,Loretto,PA,"DeGol Arena, Loretto, PA",-78.64111489999999,40.5045063,establishment,rooftop,"maurice stokes athletic center - degol arena, 140 lakeview dr, loretto, pa 15940, usa",40.50606088029149,40.50336291970849,-78.63953251970848,-78.6422304802915
Kaplan Arena,Williamsburg,VA,"Kaplan Arena, Williamsburg, VA",-76.7196704,37.2734723,establishment,rooftop,"751 ukrop way, williamsburg, va 23185, usa",37.2747022802915,37.2720043197085,-76.71802691970848,-76.7207248802915
Fleisher Center,Newark,NJ,"Fleisher Center, Newark, NJ",-74.1804421,40.74225149999999,establishment,rooftop,"104 lock st, newark, nj 07103, usa",40.74394918029149,40.7412512197085,-74.17932906970849,-74.18202703029151
Hart Center,Worcester,MA,"Hart Center, Worcester, MA",-71.806029,42.2350991,establishment,rooftop,"hart center, 1 college st, worcester, ma 01610, usa",42.2366178802915,42.23391991970851,-71.8049679197085,-71.80766588029151
Stratis Arena at the Rothman Center,Teaneck,NJ,"Stratis Arena at the Rothman Center, Teaneck, NJ",-74.0323468,40.8966579,establishment,rooftop,"100 university plaza dr, hackensack, nj 07601, usa",40.8981305302915,40.8954325697085,-74.03138321970849,-74.03408118029151
Millett Hall,Oxford,OH,"Millett Hall, Oxford, OH",-84.734543,39.51721089999999,establishment,rooftop,"500 e sycamore st, oxford, oh 45056, usa",39.51855563029149,39.5158576697085,-84.7327532697085,-84.7354512302915
FedExForum,Memphis,TN,"FedExForum, Memphis, TN",-90.0505864,35.1381418,establishment,rooftop,"191 beale st, memphis, tn 38103, usa",35.1393518302915,35.1366538697085,-90.0487537697085,-90.0514517302915
University Credit Union Center,Davis,CA,"University Credit Union Center, Davis, CA",-121.7596385,38.5418238,premise,rooftop,"the pavilion, 750 orchard rd, davis, ca 95616, usa",38.5431624802915,38.5404645197085,-121.7582893197085,-121.7609872802915
Wolstein Center,Cleveland,OH,"Wolstein Center, Cleveland, OH",-81.6768646,41.499382,establishment,rooftop,"wolstein center, 2000 prospect ave e, cleveland, oh 44115, usa",41.5009417302915,41.4982437697085,-81.6752531697085,-81.6779511302915
Reese Court,Cheney,WA,"Reese Court, Cheney, WA",-117.5893925,47.4913724,premise,rooftop,"pavilion, 1136 washington st, cheney, wa 99004, usa",47.4927218802915,47.4900239197085,-117.5878277197085,-117.5905256802915
First National Bank Arena,Jonesboro,AR,"First National Bank Arena, Jonesboro, AR",-90.67033599999999,35.845407,establishment,rooftop,"217 olympic dr, jonesboro, ar 72401, usa",35.8467220302915,35.8440240697085,-90.66896051970849,-90.6716584802915
Hinkle Fieldhouse,Indianapolis,IN,"Hinkle Fieldhouse, Indianapolis, IN",-86.16730749999999,39.8435575,establishment,rooftop,"510 w 49th st, indianapolis, in 46208, usa",39.8447226302915,39.8420246697085,-86.1662139197085,-86.16891188029152
Brooks Gymnasium,Johnson City,TN,"Brooks Gymnasium, Johnson City, TN",-82.3703615,36.3025963,establishment,rooftop,"1127 john robert bell dr, johnson city, tn 37614, usa",36.30380033029149,36.3011023697085,-82.36937201970849,-82.3720699802915
Alumni Gym (Elon University),Elon,NC,"Alumni Gym (Elon University), Elon, NC",-79.5054206,36.1032755,establishment,rooftop,"104 e haggard ave, elon, nc 27244, usa",36.10447123029149,36.1017732697085,-79.50406671970848,-79.5067646802915
Burton Coliseum,Lake Charles,LA,"Burton Coliseum, Lake Charles, LA",-93.2113889,30.1369444,establishment,rooftop,"7001 gulf hwy, lake charles, la 70607, usa",30.1383264302915,30.1356284697085,-93.21054581970849,-93.2132437802915
Watsco Center,Coral Gables,FL,"Watsco Center, Coral Gables, FL",-80.2793482,25.7153176,establishment,rooftop,"1245 dauer dr, coral gables, fl 33146, usa",25.7164029802915,25.7137050197085,-80.2777703697085,-80.28046833029151
Stott Center,Portland,OR,"Stott Center, Portland, OR",-122.6868457,45.5110059,establishment,rooftop,"930 sw hall st, portland, or 97201, usa",45.5128504802915,45.51015251970851,-122.6852470197085,-122.6879449802915
M&T Bank Arena,Hamden,CT,"M&T Bank Arena, Hamden, CT",NA,NA,NA,NA,NA,NA,NA,NA,NA
Alumni Gymnasium (Rider),Lawrenceville,NJ,"Alumni Gymnasium (Rider), Lawrenceville, NJ",-74.7353334,40.2791449,establishment,rooftop,"2083 lawrenceville rd, lawrence township, nj 08648, usa",40.2806167802915,40.2779188197085,-74.73396716970849,-74.7366651302915
William H. Pitt Center,Fairfield,CT,"William H. Pitt Center, Fairfield, CT",-73.2446525,41.2196387,premise,rooftop,"william h. pitt health and recreation center, fairfield, ct 06825, usa",41.22087133029149,41.2181733697085,-73.24331336970849,-73.2460113302915
University Center (LA),Hammond,LA,"University Center (LA), Hammond, LA",-90.46119949999999,30.5043583,locality,approximate,"hammond, la, usa",30.5457191,30.4629119,-90.39834479999999,-90.5167139
Yanitelli Center,Jersey City,NJ,"Yanitelli Center, Jersey City, NJ",-74.07310199999999,40.72772579999999,establishment,rooftop,"870 montgomery st, jersey city, nj 07306, usa",40.72893398029149,40.7262360197085,-74.07186451970848,-74.0745624802915
Hooper Eblen Center,Cookeville,TN,"Hooper Eblen Center, Cookeville, TN",-85.50988939999999,36.1784196,establishment,rooftop,"1100 mcgee blvd, cookeville, tn 38501, usa",36.1797306802915,36.1770327197085,-85.5081421197085,-85.5108400802915
H&PE Arena,Houston,TX,"H&PE Arena, Houston, TX",NA,NA,NA,NA,NA,NA,NA,NA,NA
Cameron Hall,Lexington,VA,"Cameron Hall, Lexington, VA",-79.4367657,37.7887595,establishment,rooftop,"401 n main st, lexington, va 24450, usa",37.79019128029149,37.7874933197085,-79.4354558197085,-79.4381537802915
Ramsey Regional Activity Center,Cullowhee,NC,"Ramsey Regional Activity Center, Cullowhee, NC",-83.18228549999999,35.3036876,premise,rooftop,"ramsey regional activity center, 92 catamount rd, cullowhee, nc 28723, usa",35.3050353302915,35.3023373697085,-83.1810020697085,-83.1837000302915
Beeghly Center,Youngstown,OH,"Beeghly Center, Youngstown, OH",-80.6487927,41.1081897,establishment,rooftop,"224 w spring st, youngstown, oh 44555, usa",41.1094437802915,41.1067458197085,-80.64788461970849,-80.65058258029151
Bartow Arena,Birmingham,AL,"Bartow Arena, Birmingham, AL",-86.8092363,33.5023301,establishment,rooftop,"617 13th st s, birmingham, al 35233, usa",33.5032246302915,33.5005266697085,-86.80761316970847,-86.8103111302915
Mitchell Center,Mobile,AL,"Mitchell Center, Mobile, AL",-88.1796044,30.6922298,establishment,rooftop,"5950 old shell rd, mobile, al 36608, usa",30.69361083029149,30.6909128697085,-88.1786926197085,-88.18139058029152
Chase Arena,West Hartford,CT,"Chase Arena, West Hartford, CT",-72.71654819999999,41.8018079,establishment,rooftop,"200 bloomfield ave, west hartford, ct 06117, usa",41.8030648802915,41.8003669197085,-72.71525421970848,-72.71795218029149
Bender Arena,Washington,DC,"Bender Arena, Washington, DC",-77.0900614,38.9378426,establishment,rooftop,"sports center, 4400 massachusetts ave nw, washington, dc 20016, usa",38.9391606302915,38.9364626697085,-77.08843881970849,-77.0911367802915
Renaissance Coliseum,Peoria,IL,"Renaissance Coliseum, Peoria, IL",-89.61780750000001,40.6990649,establishment,rooftop,"n maplewood ave, peoria, il 61606, usa",40.7004889302915,40.6977909697085,-89.6166734197085,-89.61937138029151
Credit Union 1 Arena,Chicago,IL,"Credit Union 1 Arena, Chicago, IL",-87.6562505,41.8748335,establishment,rooftop,"525 s racine ave, chicago, il 60607, usa",41.8761992302915,41.87350126970851,-87.6548709697085,-87.65756893029152
Edward Leede Arena,Hanover,NH,"Edward Leede Arena, Hanover, NH",-72.28283069999999,43.70299989999999,establishment,rooftop,"dartmouth college, berry sports center, 6 s park st, hanover, nh 03755, usa",43.7044830802915,43.7017851197085,-72.28132621970849,-72.2840241802915
Kirby Sports Center,Easton,PA,"Kirby Sports Center, Easton, PA",-75.2106481,40.7018683,establishment,rooftop,"700 w pierce st, easton, pa 18042, usa",40.7034778302915,40.7007798697085,-75.20915226970848,-75.2118502302915
Christl Arena,West Point,NY,"Christl Arena, West Point, NY",-73.9655587,41.3862939,establishment,rooftop,"600 thayer rd, west point, ny 10996, usa",41.3876428802915,41.3849449197085,-73.9642097197085,-73.96690768029151
Farris Center,Conway,AR,"Farris Center, Conway, AR",-92.45949759999999,35.0818647,establishment,geometric_center,"bruce st, conway, ar 72035, usa",35.08287633029149,35.08017836970849,-92.45822511970849,-92.4609230802915
Lantz Arena,Charleston,IL,"Lantz Arena, Charleston, IL",-88.17889540000002,39.4804385,establishment,rooftop,"2150 4th st #2046, charleston, il 61920, usa",39.4815374302915,39.4788394697085,-88.1775466697085,-88.18024463029151
Paul Porter Arena,Boiling Springs,NC,"Paul Porter Arena, Boiling Springs, NC",-81.6694527,35.2465289,establishment,rooftop,"110 lutz-yelton dr, boiling springs, nc 28152, usa",35.24787278029149,35.2451748197085,-81.66838486970849,-81.6710828302915
Bison Sports Arena,Fargo,ND,"Bison Sports Arena, Fargo, ND",-96.7982612,46.9003733,establishment,rooftop,"1600 n university dr, fargo, nd 58105, usa",46.9017220302915,46.8990240697085,-96.7967973697085,-96.7994953302915
Joseph G. Echols Hall,Norfolk,VA,"Joseph G. Echols Hall, Norfolk, VA",-76.25816449999999,36.8479613,establishment,rooftop,"700 park ave, norfolk, va 23504, usa",36.8493296802915,36.8466317197085,-76.2571881697085,-76.2598861302915
Tiger Arena,Savannah,GA,"Tiger Arena, Savannah, GA",-81.0658947,32.0237904,establishment,rooftop,"savannah, ga 31404, usa",32.0251595302915,32.0224615697085,-81.06453421970849,-81.0672321802915
Gentry Center,Nashville,TN,"Gentry Center, Nashville, TN",-86.8291012,36.1691061,establishment,rooftop,"3645 dr walter s davis blvd, nashville, tn 37209, usa",36.1705517302915,36.1678537697085,-86.82751851970849,-86.8302164802915
McAlister Field House,Charleston,SC,"McAlister Field House, Charleston, SC",-79.9621947,32.7986937,establishment,geometric_center,"jones ave, charleston, sc 29409, usa",32.7997056302915,32.7970076697085,-79.9610301197085,-79.9637280802915
Spiro Sports Center,Staten Island,NY,"Spiro Sports Center, Staten Island, NY",-74.09572899999999,40.6149664,establishment,geometric_center,"campus rd, staten island, ny 10301, usa",40.6162278302915,40.6135298697085,-74.09460801970849,-74.0973059802915
Coliseo de Puerto Rico,San Juan,Puerto Rico,"Coliseo de Puerto Rico, San Juan, Puerto Rico",-66.0613868,18.427731,establishment,rooftop,"500 av. arterial b, san juan, 00918, puerto rico",18.4289336302915,18.4262356697085,-66.06037581970848,-66.0630737802915
XL Center,Hartford,CT,"XL Center, Hartford, CT",-72.676967199999993,41.76844150000001,establishment,rooftop,"1 civic center plaza, hartford, ct 06103, usa",41.7696374302915,41.7669394697085,-72.67493051970848,-72.6776284802915
America First Events Center,Cedar City,UT,"America First Events Center, Cedar City, UT",-113.0729248,37.6755314,establishment,rooftop,"351 w center st, cedar city, ut 84720, usa",37.6768366302915,37.6741386697085,-113.0719051697085,-113.07460313029149
Friel Court at Beasley Coliseum,Pullman,WA,"Friel Court at Beasley Coliseum, Pullman, WA",-117.158085,46.735235,establishment,rooftop,"925 ne north fairway rd, pullman, wa 99163, usa",46.73647683029149,46.73377886970849,-117.1568485697085,-117.1595465302915
Madison Square Garden,New York,NY,"Madison Square Garden, New York, NY",-73.9934387,40.7505045,establishment,rooftop,"4 pennsylvania plaza, new york, ny 10001, usa",40.7520170802915,40.7493191197085,-73.99144299999999,-73.9947215
Dunn-Oliver Acadome,Montgomery,AL,"Dunn-Oliver Acadome, Montgomery, AL",-86.29315849999999,32.361776,establishment,rooftop,"915 s jackson st, montgomery, al 36106, usa",32.3628249802915,32.3601270197085,-86.29178966970849,-86.29448763029151
Moore Gymnasium (FL),Daytona Beach,FL,"Moore Gymnasium (FL), Daytona Beach, FL",-81.03231060000002,29.2121168,establishment,rooftop,"640 dr mary mcleod bethune blvd, daytona beach, fl 32114, usa",29.2135370302915,29.2108390697085,-81.03086796970851,-81.03356593029152
Redbird Arena,Normal,IL,"Redbird Arena, Normal, IL",-88.9987778,40.51067219999999,premise,rooftop,"redbird arena, normal, il 61761, usa",40.51192363029151,40.50922566970851,-88.9972769697085,-88.9999749302915
Ellis T. Johnson Arena,Morehead,KY,"Ellis T. Johnson Arena, Morehead, KY",-83.4256489,38.19008,establishment,geometric_center,"morehead, ky 40351, usa",38.1916822302915,38.1889842697085,-83.4240260697085,-83.42672403029151
Greensboro Coliseum,Greensboro,NC,"Greensboro Coliseum, Greensboro, NC",-79.8257387,36.0595689,establishment,rooftop,"1921 w gate city blvd, greensboro, nc 27403, usa",36.0609741302915,36.0582761697085,-79.82474951970849,-79.82744748029151
Matthew Knight Arena,Eugene,OR,"Matthew Knight Arena, Eugene, OR",-123.066311,44.0449193,establishment,rooftop,"1390 villard st, eugene, or 97403, usa",44.0465564802915,44.0438585197085,-123.0646075197085,-123.0673054802915
DCU Center,Worcester,MA,"DCU Center, Worcester, MA",-71.7986634,42.2644498,establishment,rooftop,"50 foster st, worcester, ma 01608, usa",42.2657555302915,42.2630575697085,-71.79700781970848,-71.7997057802915
Breslin Center,East Lansing,MI,"Breslin Center, East Lansing, MI",-84.4923127,42.7280929,establishment,rooftop,"breslin student events center, 534 birch rd, east lansing, mi 48824, usa",42.7291400302915,42.7264420697085,-84.4903228197085,-84.4930207802915
McKenzie Arena,Chattanooga,TN,"McKenzie Arena, Chattanooga, TN",-85.30093149999999,35.0503624,establishment,rooftop,"720 e 4th st, chattanooga, tn 37403, usa",35.0518488302915,35.0491508697085,-85.29930546970849,-85.30200343029149
Marriott Center,Provo,UT,"Marriott Center, Provo, UT",-111.6493254,40.2540068,establishment,geometric_center,"e university pkwy &, brigham young university, campus dr, provo, ut 84604, usa",40.2557726302915,40.2530746697085,-111.6482264697085,-111.6509244302915
UTRGV Fieldhouse,Edinburg,TX,"UTRGV Fieldhouse, Edinburg, TX",-98.169834,26.3067714,establishment,geometric_center,"n 5th ave, edinburg, tx 78541, usa",26.3081239802915,26.3054260197085,-98.16820731970849,-98.17090528029149
Reed Gym,Pocatello,ID,"Reed Gym, Pocatello, ID",-112.4287906,42.8645468,establishment,rooftop,"1291 martin luther king jr way, pocatello, id 83209, usa",42.8660692802915,42.8633713197085,-112.4276472197085,-112.4303451802915
Cajundome,Lafayette,LA,"Cajundome, Lafayette, LA",-92.0375595,30.2179165,establishment,rooftop,"444 cajundome blvd, lafayette, la 70506, usa",30.21907318029149,30.2163752197085,-92.03626101970849,-92.03895898029151
Georgia State Sports Arena,Atlanta,GA,"Georgia State Sports Arena, Atlanta, GA",-84.38631889999999,33.7516867,establishment,rooftop,"125 decatur st. se, atlanta, ga 30303, usa",33.7532712802915,33.7505733197085,-84.38500341970848,-84.38770138029149
Athletics-Recreation Center,Valparaiso,IN,"Athletics-Recreation Center, Valparaiso, IN",-87.0483582,41.4642298,establishment,rooftop,"1009 union st, valparaiso, in 46383, usa",41.4656382302915,41.4629402697085,-87.04736001970848,-87.0500579802915
Matthews Arena,Boston,MA,"Matthews Arena, Boston, MA",-71.0846418,42.3410767,establishment,rooftop,"238-262 st botolph st, boston, ma 02115, usa",42.3428053302915,42.3401073697085,-71.0831901197085,-71.08588808029153
Knott Arena,Emmitsburg,MD,"Knott Arena, Emmitsburg, MD",-77.3461851,39.6796739,establishment,rooftop,"16300 old emmitsburg rd, emmitsburg, md 21727, usa",39.6811039802915,39.6784060197085,-77.34488736970852,-77.34758533029152
Pan American Center,Las Cruces,NM,"Pan American Center, Las Cruces, NM",-106.7421707,32.2836754,establishment,rooftop,"1810 e university ave, las cruces, nm 88003, usa",32.2852227802915,32.2825248197085,-106.7404725697085,-106.7431705302915
IZOD Center,East Rutherford,NJ,"IZOD Center, East Rutherford, NJ",-74.0681438,40.8110498,establishment,rooftop,"50 nj-120, east rutherford, nj 07073, usa",40.8122981302915,40.8096001697085,-74.06701391970849,-74.069711880291493
Pizzitola Sports Center,Providence,RI,"Pizzitola Sports Center, Providence, RI",-71.3980885,41.8316983,premise,rooftop,"pizzitola sports center, providence, ri 02906, usa",41.8330315802915,41.8303336197085,-71.39680511970849,-71.39950308029151
Bren Events Center,Irvine,CA,"Bren Events Center, Irvine, CA",-117.8470627,33.6493863,establishment,rooftop,"100 mesa rd, irvine, ca 92697, usa",33.65087718029149,33.6481792197085,-117.8453170197085,-117.8480149802915
Sojka Pavilion,Lewisburg,PA,"Sojka Pavilion, Lewisburg, PA",-76.8868827,40.9568332,establishment,rooftop,"701 moore ave, lewisburg, pa 17837, usa",40.9581821802915,40.9554842197085,-76.88553371970849,-76.8882316802915
William H. Detrick Gymnasium,New Britain,CT,"William H. Detrick Gymnasium, New Britain, CT",-72.76515719999999,41.6932347,establishment,rooftop,"1615 stanley st, new britain, ct 06053, usa",41.6946853802915,41.6919874197085,-72.76403981970849,-72.76673778029149
FAU Arena,Boca Raton,FL,"FAU Arena, Boca Raton, FL",-80.1093647,26.3723396,establishment,rooftop,"arena, 777 glades rd, boca raton, fl 33431, usa",26.3739299802915,26.3712320197085,-80.1080130197085,-80.1107109802915
Rogers Arena,Vancouver,BC,"Rogers Arena, Vancouver, BC",-123.1088227,49.2778358,establishment,rooftop,"800 griffiths way, vancouver, bc v6b 6g1, canada",49.2792502302915,49.2765522697085,-123.1072864697085,-123.1099844302915
M.A.C. Center,Kent,OH,"M.A.C. Center, Kent, OH",-81.3442941,41.1479527,establishment,rooftop,"1025 risman dr, kent, oh 44242, usa",41.1490424302915,41.1463444697085,-81.3431592197085,-81.3458571802915
Corbett Sports Center,Greensboro,NC,"Corbett Sports Center, Greensboro, NC",-79.76869339999999,36.0765458,establishment,rooftop,"405 n benbow rd, greensboro, nc 27411, usa",36.0777760302915,36.0750780697085,-79.76734881970849,-79.7700467802915
KeyArena,Seattle,WA,"KeyArena, Seattle, WA",-122.3540714,47.62207129999999,establishment,rooftop,"334 1st ave n, seattle, wa 98109, usa",47.62345808029149,47.62076011970849,-122.3527892697085,-122.3554872302915
Great Southern Bank Arena,Springfield,MO,"Great Southern Bank Arena, Springfield, MO",-93.2831751,37.20196869999999,establishment,rooftop,"685 s john q hammons pkwy, springfield, mo 65807, usa",37.2030462802915,37.2003483197085,-93.28149861970849,-93.2841965802915
Skyhawk Arena,Martin,TN,"Skyhawk Arena, Martin, TN",-88.8680607,36.3436434,establishment,rooftop,"15 mt pelia rd, martin, tn 38237, usa",36.3453036302915,36.3426056697085,-88.8667157697085,-88.86941373029151
Resch Center,Ashwaubenon,WI,"Resch Center, Ashwaubenon, WI",-88.0549884,44.4994989,establishment,rooftop,"820 armed forces dr, green bay, wi 54304, usa",44.5004392302915,44.49774126970851,-88.0540127697085,-88.05671073029151
Icardo Center,Bakersfield,CA,"Icardo Center, Bakersfield, CA",-119.1026237,35.3475589,establishment,rooftop,"icardo center, 9001 stockdale hwy gym, bakersfield, ca 93311, usa",35.3488030302915,35.3461050697085,-119.1015434197085,-119.1042413802915
Dean E. Smith Center,Chapel Hill,NC,"Dean E. Smith Center, Chapel Hill, NC",-79.0438731,35.8994844,establishment,rooftop,"300 skipper bowles dr, chapel hill, nc 27514, usa",35.9012584802915,35.8985605197085,-79.0421587697085,-79.04485673029151
Newman Arena,Ithaca,NY,"Newman Arena, Ithaca, NY",-76.4762787,42.4454316,establishment,rooftop,"554 campus rd, ithaca, ny 14853, usa",42.4466931802915,42.4439952197085,-76.47502866970848,-76.47772663029149
DakotaDome,Vermillion,SD,"DakotaDome, Vermillion, SD",-96.927943,42.7911532,establishment,rooftop,"1101 n dakota st, vermillion, sd 57069, usa",42.79298173029149,42.79028376970849,-96.92640631970849,-96.9291042802915
McLeod Center,Cedar Falls,IA,"McLeod Center, Cedar Falls, IA",-92.467185,42.514366,establishment,rooftop,"2501 hudson rd, cedar falls, ia 50614, usa",42.51548273029149,42.5127847697085,-92.4662826697085,-92.46898063029151
Chiles Center,Portland,OR,"Chiles Center, Portland, OR",-122.7284971,45.5750931,establishment,rooftop,"5000 n willamette blvd, portland, or 97203, usa",45.5759446802915,45.5732467197085,-122.7270276197085,-122.7297255802915
T-Mobile Center,Kansas City,MO,"T-Mobile Center, Kansas City, MO",-94.5801529,39.0974667,establishment,rooftop,"1407 grand blvd, kansas city, mo 64106, usa",39.0990996802915,39.0964017197085,-94.57848481970849,-94.58118278029151
Lahaina Civic Center,Maui,HI,"Lahaina Civic Center, Maui, HI",-156.6838128,20.9050016,establishment,rooftop,"1840 hi-30, lahaina, hi 96761, usa",20.9065204302915,20.9038224697085,-156.6824636697085,-156.6851616302915
Mabee Center,Tulsa,OK,"Mabee Center, Tulsa, OK",-95.95576860000001,36.0480386,establishment,rooftop,"7777 s lewis ave, tulsa, ok 74136, usa",36.0494479802915,36.0467500197085,-95.95442691970848,-95.9571248802915
Buccaneer Fieldhouse,Charleston,SC,"Buccaneer Fieldhouse, Charleston, SC",-80.0670871,32.98079,establishment,rooftop,"north charleston, sc 29406, usa",32.9821529302915,32.9794549697085,-80.06577706970849,-80.0684750302915
Jones Convocation Center,Chicago,IL,"Jones Convocation Center, Chicago, IL",-87.60842749999999,41.7165543,establishment,rooftop,"9501 s king dr, chicago, il 60628, usa",41.7179691802915,41.71527121970851,-87.60752776970848,-87.61022573029149
Bob Carpenter Center,Newark,DE,"Bob Carpenter Center, Newark, DE",-75.749568,39.6602881,establishment,rooftop,"631 s college ave, newark, de 19716, usa",39.6618200302915,39.65912206970851,-75.74836096970849,-75.7510589302915
Stan Sheriff Center,Honolulu,HI,"Stan Sheriff Center, Honolulu, HI",-157.8189199,21.2942686,establishment,rooftop,"1355 lower campus rd, honolulu, hi 96822, usa",21.2953681802915,21.2926702197085,-157.8176382697085,-157.8203362302915
Moon Palace Resort,Cancun,Mexico,"Moon Palace Resort, Cancun, Mexico",-86.82904649999999,20.98886,establishment,rooftop,"cancun - chetumal km 340, riviera maya, 77500 cancún, q.r., mexico",20.99020593029151,20.9875079697085,-86.8277319197085,-86.8304298802915
Charleston Civic Center,Charleston,WV,"Charleston Civic Center, Charleston, WV",-81.63999910000001,38.3559922,establishment,rooftop,"200 civic center dr, charleston, wv 25301, usa",38.3571558302915,38.3544578697085,-81.6391240197085,-81.64182198029151
Trask Coliseum,Wilmington,NC,"Trask Coliseum, Wilmington, NC",-77.87834289999999,34.2249715,establishment,rooftop,"679 wagoner dr, wilmington, nc 28403, usa",34.2262773802915,34.2235794197085,-77.87703451970849,-77.87973248029151
Spectrum Center,Charlotte,NC,"Spectrum Center, Charlotte, NC",-80.8393468,35.2251952,establishment,rooftop,"333 e trade st, charlotte, nc 28202, usa",35.2264754302915,35.2237774697085,-80.83815481970849,-80.8408527802915
Lee E. Williams Athletic and Assembly Center,Jackson,MS,"Lee E. Williams Athletic and Assembly Center, Jackson, MS",-90.21194539999999,32.2997878,premise,rooftop,"lee e. williams athletic and assembly center, s prentiss st, jackson, ms 39203, usa",32.30105398029151,32.29835601970851,-90.2105980197085,-90.2132959802915
McCann Arena,Poughkeepsie,NY,"McCann Arena, Poughkeepsie, NY",-73.9350338,41.7174238,establishment,geometric_center,"champagnat way, poughkeepsie, ny 12601, usa",41.7191646802915,41.71646671970851,-73.9335763697085,-73.93627433029151
Premier America Credit Union Arena,Northridge,CA,"Premier America Credit Union Arena, Northridge, CA",-118.5259044,34.2419495,establishment,rooftop,"redwood hall, northridge, ca 91330, usa",34.2432124802915,34.2405145197085,-118.5242219697085,-118.5269199302915
Prudential Center,Newark,NJ,"Prudential Center, Newark, NJ",-74.1710659,40.733537,establishment,rooftop,"25 lafayette st, newark, nj 07102, usa",40.73469498029149,40.7319970197085,-74.1697572697085,-74.17245523029152
LeRoy A. Ufkes Court at Western Hall,Macomb,IL,"LeRoy A. Ufkes Court at Western Hall, Macomb, IL",-90.685233,40.4715387,establishment,geometric_center,"macomb, il 61455, usa",40.4728927802915,40.4701948197085,-90.6842445197085,-90.6869424802915
Sullivan Arena,Anchorage,AK,"Sullivan Arena, Anchorage, AK",-149.8732523,61.2058827,establishment,rooftop,"1600 gambell st, anchorage, ak 99501, usa",61.20705003029151,61.2043520697085,-149.8723345197085,-149.8750324802915
Idaho Central Arena,Boise,ID,"Idaho Central Arena, Boise, ID",-116.204195,43.614582,establishment,rooftop,"233 s capitol blvd, boise, id 83702, usa",43.61598163029149,43.6132836697085,-116.2026816197085,-116.2053795802915
Hynes Athletics Center,New Rochelle,NY,"Hynes Athletics Center, New Rochelle, NY",-73.7856802,40.92606780000001,establishment,rooftop,"715 north ave, new rochelle, ny 10801, usa",40.9275749802915,40.9248770197085,-73.78432236970849,-73.7870203302915
Worthen Arena,Muncie,IN,"Worthen Arena, Muncie, IN",-85.4061432,40.2070669,establishment,rooftop,"2000 w university ave, muncie, in 47304, usa",40.2081674802915,40.2054695197085,-85.4047914197085,-85.40748938029151
Cotterell Court,Hamilton,NY,"Cotterell Court, Hamilton, NY",-75.5427254,42.81532929999999,establishment,geometric_center,"colgate university, hamilton, ny 13346, usa",42.81663263029149,42.81393466970849,-75.5408628697085,-75.54356083029151
Anaheim Convention Center,Anaheim,CA,"Anaheim Convention Center, Anaheim, CA",-117.9205064,33.7999308,neighborhood,approximate,"convention center, anaheim, ca 92802, usa",33.8033661,33.796016,-117.9148911,-117.9275918
HP Field House,Orlando,FL,"HP Field House, Orlando, FL",-81.3789269,28.5383832,locality,approximate,"orlando, fl, usa",28.6142797,28.3480667,-81.17779999999999,-81.5075304
Ryan Center,Kingston,RI,"Ryan Center, Kingston, RI",-71.5357994,41.4876546,establishment,rooftop,"1 lincoln almond plaza, kingston, ri 02881, usa",41.4892652802915,41.4865673197085,-71.53482506970849,-71.53752303029151
SEFCU Arena,Albany,NY,"SEFCU Arena, Albany, NY",-73.8283946,42.6819357,establishment,rooftop,"1400 washington ave, albany, ny 12222, usa",42.6835651302915,42.6808671697085,-73.8271631197085,-73.82986108029151
South Padre Island Convention Center,South Padre Island,TX,"South Padre Island Convention Center, South Padre Island, TX",-97.1751285,26.1410463,establishment,rooftop,"7355 padre blvd, south padre island, tx 78597, usa",26.1425875802915,26.1398896197085,-97.17348721970849,-97.1761851802915
Towson Center,Towson,MD,"Towson Center, Towson, MD",-76.6164302,39.3865067,establishment,rooftop,"7537 auburn dr, towson, md 21204, usa",39.3879260302915,39.385228069708504,-76.61463556970848,-76.6173335302915
Now Arena,Hoffman Estates,IL,"Now Arena, Hoffman Estates, IL",-88.2120265,42.06915619999999,establishment,rooftop,"5333 prairie stone pkwy, hoffman estates, il 60192, usa",42.0702087302915,42.0675107697085,-88.2111831197085,-88.2138810802915
Patrick Gymnasium,Burlington,VT,"Patrick Gymnasium, Burlington, VT",-73.1948048,44.4705972,establishment,rooftop,"97 spear st, burlington, vt 05405, usa",44.4720095802915,44.4693116197085,-73.1934692197085,-73.19616718029151
Holt Arena,Pocatello,ID,"Holt Arena, Pocatello, ID",-112.4285704,42.8699901,establishment,rooftop,"550 memorial dr, pocatello, id 83201, usa",42.8709089802915,42.8682110197085,-112.4272316697085,-112.4299296302915
KSU Convocation Center,Kennesaw,GA,"KSU Convocation Center, Kennesaw, GA",-84.58036919999999,34.03685919999999,establishment,rooftop,"590 cobb ave, kennesaw, ga 30144, usa",34.0380170302915,34.0353190697085,-84.57868976970848,-84.5813877302915
Ocean Bank Convocation Center,Miami,FL,"Ocean Bank Convocation Center, Miami, FL",-80.37960939999999,25.7569291,establishment,rooftop,"1180 sw 113th ave, miami, fl 33174, usa",25.75830373029151,25.7556057697085,-80.37785596970849,-80.38055393029151
Joseph J. Gentile Arena,Chicago,IL,"Joseph J. Gentile Arena, Chicago, IL",-87.659117,42.0006423,establishment,rooftop,"6525 n sheridan rd, chicago, il 60626, usa",42.00222678029151,41.99952881970851,-87.6574357197085,-87.66013368029151
Orleans Arena,Las Vegas,NV,"Orleans Arena, Las Vegas, NV",-115.2026473,36.105701,establishment,rooftop,"4500 tropicana ave, las vegas, nv 89103, usa",36.10681023029149,36.1041122697085,-115.2010171197085,-115.2037150802915
Michael J. Hagan '85 Arena,Philadelphia,PA,"Michael J. Hagan '85 Arena, Philadelphia, PA",-75.23505759999999,39.995661,establishment,rooftop,"2450 n 54th st, philadelphia, pa 19131, usa",39.9968445302915,39.9941465697085,-75.23383131970849,-75.2365292802915
UTSA Convocation Center,San Antonio,TX,"UTSA Convocation Center, San Antonio, TX",-98.62148479999999,29.5823355,establishment,rooftop,"physical education building, san antonio, tx 78249, usa",29.58377013029149,29.5810721697085,-98.6206216697085,-98.6233196302915
Savage Arena,Toledo,OH,"Savage Arena, Toledo, OH",-83.6091373,41.6602888,establishment,rooftop,"2025 n douglas rd, toledo, oh 43606, usa",41.6614383802915,41.6587404197085,-83.60879756970849,-83.6114955302915
Lakefront Arena,New Orleans,LA,"Lakefront Arena, New Orleans, LA",-90.0505103,30.0301449,establishment,rooftop,"6801 franklin ave, new orleans, la 70122, usa",30.0314345802915,30.0287366197085,-90.04965991970852,-90.05235788029152
Amway Center,Orlando,FL,"Amway Center, Orlando, FL",-81.3838535,28.5392214,establishment,rooftop,"400 w church st suite 200, orlando, fl 32801, usa",28.5410525802915,28.5383546197085,-81.3825225697085,-81.3852205302915
Curb Event Center Arena,Nashville,TN,"Curb Event Center Arena, Nashville, TN",-86.79457529999999,36.132337,establishment,rooftop,"2002 belmont blvd, nashville, tn 37212, usa",36.13386948029149,36.1311715197085,-86.79372351970848,-86.7964214802915
Stabler Arena,Bethlehem,PA,"Stabler Arena, Bethlehem, PA",-75.35740240000001,40.5852839,establishment,geometric_center,"bethlehem, pa 18015, usa",40.5865755302915,40.5838775697085,-75.3565663697085,-75.35926433029152
David R. Stopher Gymnasium,Thibodaux,LA,"David R. Stopher Gymnasium, Thibodaux, LA",-90.8013556,29.7923422,establishment,geometric_center,"220 nsu, colonel dr, thibodaux, la 70301, usa",29.7934975302915,29.7907995697085,-90.80007186970849,-90.80276983029151
State Farm Arena,Atlanta,GA,"State Farm Arena, Atlanta, GA",-84.3963244,33.7572891,establishment,rooftop,"1 state farm dr, atlanta, ga 30303, usa",33.7586406302915,33.7559426697085,-84.3950361197085,-84.3977340802915
PPG Paints Arena,Pittsburgh,PA,"PPG Paints Arena, Pittsburgh, PA",-79.98955289999999,40.4393097,establishment,rooftop,"1001 fifth ave, pittsburgh, pa 15219, usa",40.4404213802915,40.4377234197085,-79.98886751970848,-79.9915654802915
Findlay Toyota Center,Prescott Valley,AZ,"Findlay Toyota Center, Prescott Valley, AZ",-112.3366658,34.5890187,establishment,rooftop,"3201 main st, prescott valley, az 86314, usa",34.5903398302915,34.5876418697085,-112.3355181697085,-112.3382161302915
First Community Arena at the Vadalabene Center,Edwardsville,IL,"First Community Arena at the Vadalabene Center, Edwardsville, IL",-90.0000974,38.795867200000004,establishment,rooftop,"edwardsville, il 62025, usa",38.79726703029149,38.79456906970849,-89.9987600197085,-90.0014579802915
University Arena (MI),Kalamazoo,MI,"University Arena (MI), Kalamazoo, MI",-85.6086875,42.2833506,premise,rooftop,"read fieldhouse, kalamazoo, mi 49008, usa",42.28469528029149,42.28199731970849,-85.6073644197085,-85.61006238029151
Allstate Arena,Rosemont,IL,"Allstate Arena, Rosemont, IL",-87.88783,42.005259,establishment,rooftop,"6920 mannheim rd, rosemont, il 60018, usa",42.0066423802915,42.0039444197085,-87.8859928197085,-87.88869078029151
Steinberg Wellness Center,Brooklyn,NY,"Steinberg Wellness Center, Brooklyn, NY",-73.9793049,40.6906465,premise,rooftop,"steinberg wellness center, 161 ashland pl, brooklyn, ny 11201, usa",40.69200163029149,40.68930366970849,-73.97790841970848,-73.9806063802915
Chace Athletic Center,Smithfield,RI,"Chace Athletic Center, Smithfield, RI",-71.5394146,41.9211855,establishment,rooftop,"1150 douglas turnpike, smithfield, ri 02917, usa",41.9225344802915,41.9198365197085,-71.53806561970849,-71.54076358029151
Koessler Athletic Center,Buffalo,NY,"Koessler Athletic Center, Buffalo, NY",-78.8575314,42.9209439,establishment,rooftop,"1829 main st, buffalo, ny 14208, usa",42.9224064802915,42.9197085197085,-78.85647401970849,-78.8591719802915
Liacouras Center,Philadelphia,PA,"Liacouras Center, Philadelphia, PA",-75.1585091,39.9797111,establishment,rooftop,"1776 n broad st, philadelphia, pa 19121, usa",39.9812197302915,39.9785217697085,-75.15720286970848,-75.1599008302915
Vivint Arena,Salt Lake City,UT,"Vivint Arena, Salt Lake City, UT",-111.9010874,40.7682681,establishment,rooftop,"301 s temple, salt lake city, ut 84101, usa",40.7695732302915,40.76687526970851,-111.8997558197085,-111.9024537802915
Cowan Spectrum,Moscow,ID,"Cowan Spectrum, Moscow, ID",-117.0173241,46.7263676,establishment,rooftop,"875 perimeter dr, moscow, id 83844, usa",46.7278668302915,46.7251688697085,-117.0170655197085,-117.0197634802915
Rabobank Arena,Bakersfield,CA,"Rabobank Arena, Bakersfield, CA",-119.012967,35.372296,establishment,rooftop,"1001 truxtun ave, bakersfield, ca 93301, usa",35.3740685802915,35.3713706197085,-119.0115776197085,-119.0142755802915
INTRUST Bank Arena,Wichita,KS,"INTRUST Bank Arena, Wichita, KS",-97.3320617,37.6832771,establishment,rooftop,"500 e waterman st, wichita, ks 67202, usa",37.6842021302915,37.6815041697085,-97.33046631970849,-97.3331642802915
MassMutual Center,Springfield,MA,"MassMutual Center, Springfield, MA",-72.5870971,42.1022605,establishment,rooftop,"1277 main st, springfield, ma 01103, usa",42.1038575302915,42.10115956970851,-72.5859693697085,-72.5886673302915
Honda Center,Anaheim,CA,"Honda Center, Anaheim, CA",-117.8764687,33.8078476,establishment,rooftop,"2695 e katella ave, anaheim, ca 92806, usa",33.8088905,33.8061593,-117.8756758697085,-117.8783738302915
Daskalakis Athletic Center,Philadelphia,PA,"Daskalakis Athletic Center, Philadelphia, PA",-75.1907082,39.9563832,establishment,rooftop,"3301 market st, philadelphia, pa 19104, usa",39.95745788029149,39.95475991970849,-75.1896029697085,-75.19230093029151
OceanFirst Bank Center,West Long Branch,NJ,"OceanFirst Bank Center, West Long Branch, NJ",-74.0078846,40.2791393,premise,rooftop,"the oceanfirst bank center, 400 cedar ave, west long branch, nj 07764, usa",40.28061108029149,40.27791311970849,-74.0065434697085,-74.00924143029151
Lee & Helene Sapp Fieldhouse,Omaha,NE,"Lee & Helene Sapp Fieldhouse, Omaha, NE",NA,NA,NA,NA,NA,NA,NA,NA,NA
The Palace of Auburn Hills,Auburn Hills,MI,"The Palace of Auburn Hills, Auburn Hills, MI",-83.2457929,42.69688499999999,establishment,rooftop,"6 championship dr, auburn hills, mi 48326, usa",42.7003677,42.6930126,-83.24252039999999,-83.246117
Wells Fargo Center,Philadelphia,PA,"Wells Fargo Center, Philadelphia, PA",-75.17197949999999,39.9012015,establishment,rooftop,"3601 s broad st, philadelphia, pa 19148, usa",39.9022823302915,39.8995843697085,-75.17065096970849,-75.17334893029151
Davey L. Whitney Complex,Lorman,MS,"Davey L. Whitney Complex, Lorman, MS",-91.1330911,31.8730653,establishment,geometric_center,"lorman, ms 39096, usa",31.8743099802915,31.8716120197085,-91.1319428197085,-91.1346407802915
Ellis Davis Fieldhouse,Dallas,TX,"Ellis Davis Fieldhouse, Dallas, TX",-96.8422529,32.6373533,establishment,rooftop,"9191 s polk st, dallas, tx 75232, usa",32.6384000302915,32.6357020697085,-96.8408432697085,-96.8435412302915
Municipal Auditorium (MO),Kansas City,MO,"Municipal Auditorium (MO), Kansas City, MO",-94.58634099999999,39.09787,establishment,rooftop,"301 w 13th st, kansas city, mo 64105, usa",39.09963493029149,39.09693696970849,-94.5849832697085,-94.58768123029151
Paycom Center,Oklahoma City,OK,"Paycom Center, Oklahoma City, OK",-97.5151138,35.4634247,establishment,rooftop,"100 w reno ave, oklahoma city, ok 73102, usa",35.4648660802915,35.4621681197085,-97.5130382,-97.5161631
United Center,Chicago,IL,"United Center, Chicago, IL",-87.6740485,41.8806277,premise,rooftop,"united center, 1901 w madison st, chicago, il 60612, usa",41.8819384802915,41.87924051970851,-87.6728042697085,-87.6755022302915
Gainbridge Fieldhouse,Indianapolis,IN,"Gainbridge Fieldhouse, Indianapolis, IN",-86.1555367,39.7640434,establishment,rooftop,"125 s pennsylvania st, indianapolis, in 46204, usa",39.76523478029149,39.76253681970849,-86.1537484697085,-86.15644643029151
Blue Cross Arena,Rochester,NY,"Blue Cross Arena, Rochester, NY",-77.6108832,43.1538374,establishment,rooftop,"1 war mem sq, rochester, ny 14614, usa",43.1553378802915,43.1526399197085,-77.6099978697085,-77.6126958302915
Enterprise Center,St. Louis,MO,"Enterprise Center, St. Louis, MO",-90.20267830000002,38.6268402,establishment,rooftop,"1401 clark ave, st. louis, mo 63103, usa",38.6278390802915,38.6251411197085,-90.20156266970851,-90.20426063029151
Nationwide Arena,Columbus,OH,"Nationwide Arena, Columbus, OH",-83.0060483,39.9692072,establishment,rooftop,"200 w nationwide blvd, columbus, oh 43215, usa",39.9702169802915,39.9675190197085,-83.0046897,-83.007566
American Airlines Center,Dallas,TX,"American Airlines Center, Dallas, TX",-96.8102547,32.7903908,establishment,rooftop,"2500 victory ave, dallas, tx 75219, usa",32.7920928302915,32.7893948697085,-96.80919786970851,-96.81189583029152
Peter Aquilone Court,Brooklyn,NY,"Peter Aquilone Court, Brooklyn, NY",-73.9575687,40.7183236,establishment,rooftop,"168 bedford ave, brooklyn, ny 11211, usa",40.7196222302915,40.7169242697085,-73.95608926970849,-73.9587872302915
Robert W. Harrison HPER Complex,Itta Bena,MS,"Robert W. Harrison HPER Complex, Itta Bena, MS",-90.34091649999999,33.5106388,establishment,rooftop,"14000 us-82, itta bena, ms 38941, usa",33.51214983029149,33.50945186970849,-90.33982201970849,-90.34251998029151
Fredrick C. Hobdy Assembly Center,Grambling,LA,"Fredrick C. Hobdy Assembly Center, Grambling, LA",-92.7237273,32.5204266,establishment,geometric_center,"grambling, la 71245, usa",32.5218065302915,32.5191085697085,-92.7218881697085,-92.72458613029151
T.M. Elmore Gymnasium,Normal,AL,"T.M. Elmore Gymnasium, Normal, AL",-86.5722237,34.78384090000001,neighborhood,approximate,"normal, huntsville, al, usa",34.7892673,34.7788632,-86.55875549999999,-86.5823103
H. O. Clemmons Arena,Pine Bluff,AR,"H. O. Clemmons Arena, Pine Bluff, AR",-92.0239627,34.2460059,establishment,rooftop,"1542-1598 l a prexy davis dr, pine bluff, ar 71601, usa",34.2471180302915,34.2444200697085,-92.0226238697085,-92.0253218302915
College Park Center,Arlington,TX,"College Park Center, Arlington, TX",-97.1080356,32.73064280000001,establishment,rooftop,"600 s center st, arlington, tx 76019, usa",32.7319319802915,32.7292340197085,-97.1070452697085,-97.1097432302915
Anderson Arena,Bowling Green,OH,"Anderson Arena, Bowling Green, OH",-83.6365235,41.3772755,establishment,geometric_center,"ridge st, bowling green, oh 43403, usa",41.3788424802915,41.3761445197085,-83.6348689197085,-83.6375668802915
Klotsche Center,Milwaukee,WI,"Klotsche Center, Milwaukee, WI",-87.8796776,43.0795057,subpremise,rooftop,"3409 n downer ave klotsche center, milwaukee, wi 53211, usa",43.0810606802915,43.0783627197085,-87.8779738197085,-87.88067178029151
Richmond Coliseum,Richmond,VA,"Richmond Coliseum, Richmond, VA",-77.43491499999999,37.54502350000001,establishment,rooftop,"601 e leigh st, richmond, va 23219, usa",37.5466636802915,37.5439657197085,-77.43333636970848,-77.43603433029149
U.S. Cellular Center,Asheville,NC,"U.S. Cellular Center, Asheville, NC",-82.555619,35.5971794,establishment,rooftop,"87 haywood st, asheville, nc 28801, usa",35.5984846802915,35.5957867197085,-82.5543497697085,-82.5570477302915
Sioux Falls Arena,Sioux Falls,SD,"Sioux Falls Arena, Sioux Falls, SD",-96.7492627,43.5621264,establishment,rooftop,"1201 n w ave, sioux falls, sd 57104, usa",43.56372908029149,43.5610311197085,-96.7482525197085,-96.75095048029151
Summit Arena - Convention Center,Hot Springs,AR,"Summit Arena - Convention Center, Hot Springs, AR",-93.04878389999999,34.5099354,establishment,rooftop,"398 convention blvd, hot springs, ar 71901, usa",34.51154003029149,34.50884206970849,-93.04755686970849,-93.0502548302915
crypto.com Arena,Los Angeles,CA,"crypto.com Arena, Los Angeles, CA",-118.2672541,34.0430175,establishment,rooftop,"1111 s figueroa st, los angeles, ca 90015, usa",34.0442803802915,34.0415824197085,-118.2653459697085,-118.2680439302915
Leonard E. Merrell Center,Katy,TX,"Leonard E. Merrell Center, Katy, TX",-95.83264700000001,29.7798456,establishment,rooftop,"6301 s stadium ln, katy, tx 77494, usa",29.7810439302915,29.7783459697085,-95.8313174197085,-95.8340153802915
Rocket Mortgage FieldHouse,Cleveland,OH,"Rocket Mortgage FieldHouse, Cleveland, OH",-81.68805739999999,41.4965474,establishment,rooftop,"1 center court, cleveland, oh 44115, usa",41.49798313029149,41.4952851697085,-81.6870094,-81.69031869999999
Smoothie King Center,New Orleans,LA,"Smoothie King Center, New Orleans, LA",-90.08205679999999,29.9490351,establishment,rooftop,"1501 dave dixon dr, new orleans, la 70113, usa",29.9502409302915,29.9475429697085,-90.0803351697085,-90.08303313029151
Jim Whelan Boardwalk Hall,Atlantic City,NJ,"Jim Whelan Boardwalk Hall, Atlantic City, NJ",-74.438391,39.354905,establishment,rooftop,"2301 boardwalk, atlantic city, nj 08401, usa",39.35637553029149,39.35367756970849,-74.43673961970849,-74.4394375802915
Walsh Gymnasium,South Orange,NJ,"Walsh Gymnasium, South Orange, NJ",-74.24488649999999,40.7417246,establishment,rooftop,"400 s orange ave, south orange, nj 07079, usa",40.7432036302915,40.7405056697085,-74.24343136970849,-74.24612933029151
ORACLE Arena,Oakland,CA,"ORACLE Arena, Oakland, CA",-122.203049,37.750338,establishment,rooftop,"7000 s coliseum wy, oakland, ca 94621, usa",37.75165398029149,37.74895601970849,-122.2015656197085,-122.2042635802915
Pauley Pavilion,Los Angeles,CA,"Pauley Pavilion, Los Angeles, CA",-118.4469294,34.0703423,establishment,rooftop,"301 westwood plaza, los angeles, ca 90095, usa",34.0714597302915,34.06876176970851,-118.4459925197085,-118.4486904802915
Yuengling Center,Tampa,FL,"Yuengling Center, Tampa, FL",-82.4065387,28.0592076,establishment,rooftop,"12499 usf bull run drive, tampa, fl 33617, usa",28.0610466302915,28.0583486697085,-82.4049597197085,-82.4076576802915
Georgia Dome,Atlanta,GA,"Georgia Dome, Atlanta, GA",-84.40082850000002,33.7576897,establishment,geometric_center,"atlanta, ga 30313, usa",33.7594230802915,33.75672511970851,-84.4001055197085,-84.40280348029151
Swisher Gymnasium,Jacksonville,FL,"Swisher Gymnasium, Jacksonville, FL",-81.6049621,30.3502343,premise,rooftop,"swisher gymnasium, jacksonville, fl 32211, usa",30.3517173302915,30.3490193697085,-81.60372981970849,-81.6064277802915
Wells Fargo Arena (IA),Des Moines,IA,"Wells Fargo Arena (IA), Des Moines, IA",-93.6210651,41.5926623,establishment,rooftop,"233 center st, des moines, ia 50309, usa",41.5938887802915,41.5911908197085,-93.6196983697085,-93.62239633029151
Bridgestone Arena,Nashville,TN,"Bridgestone Arena, Nashville, TN",-86.7784959,36.1591736,establishment,rooftop,"501 broadway, nashville, tn 37203, usa",36.16089763029149,36.15819966970849,-86.77691351970849,-86.7796114802915
Truist Arena,Highland Heights,KY,"Truist Arena, Highland Heights, KY",-84.45910049999999,39.0319947,establishment,rooftop,"500 louie b nunn dr, highland heights, ky 41099, usa",39.03310263029149,39.0304046697085,-84.4580337197085,-84.4607316802915
George Bisacca Court at Alumni Hall,Fairfield,CT,"George Bisacca Court at Alumni Hall, Fairfield, CT",-73.2566191,41.159837,establishment,rooftop,"loyola drive, fairfield, ct 06824, usa",41.16120168029149,41.1585037197085,-73.2552655697085,-73.25796353029152
Agganis Arena,Boston,MA,"Agganis Arena, Boston, MA",-71.1176966,42.3521945,premise,rooftop,"agganis arena, 925 commonwealth ave, boston, ma 02215, usa",42.3534898802915,42.3507919197085,-71.1163819197085,-71.11907988029151
Norfolk Scope Arena,Norfolk,VA,"Norfolk Scope Arena, Norfolk, VA",-76.28687800000002,36.8532544,establishment,rooftop,"201 e brambleton ave, norfolk, va 23510, usa",36.8542940302915,36.8515960697085,-76.2852404197085,-76.28793838029151
BOK Center,Tulsa,OK,"BOK Center, Tulsa, OK",-95.9963597,36.1527447,establishment,rooftop,"200 s denver ave., tulsa, ok 74103, usa",36.1542663802915,36.1515684197085,-95.9946405,-95.9975147
Barclays Center,Brooklyn,NY,"Barclays Center, Brooklyn, NY",-73.97541559999999,40.6826465,establishment,rooftop,"620 atlantic ave, brooklyn, ny 11217, usa",40.6839471802915,40.6812492197085,-73.97444551970848,-73.9771434802915
Addition Financial Arena,Orlando,FL,"Addition Financial Arena, Orlando, FL",-81.1973124,28.607438,establishment,rooftop,"12777 gemini blvd n, orlando, fl 32816, usa",28.6082353302915,28.60553736970849,-81.1961729697085,-81.1988709302915
Curtis Culwell Center,Garland,TX,"Curtis Culwell Center, Garland, TX",-96.6420804,32.9592783,establishment,rooftop,"4999 naaman forest blvd, garland, tx 75040, usa",32.9608582802915,32.9581603197085,-96.64045896970849,-96.6431569302915
TD Arena,Charleston,SC,"TD Arena, Charleston, SC",-79.9342231,32.7850484,establishment,rooftop,"301 meeting st, charleston, sc 29401, usa",32.7867644802915,32.7840665197085,-79.9325943197085,-79.9352922802915
US Bank Arena,Cincinnati,OH,"US Bank Arena, Cincinnati, OH",-84.50447869999999,39.0979906,establishment,rooftop,"100 broadway, cincinnati, oh 45202, usa",39.0992607802915,39.0965628197085,-84.50334266970849,-84.50604063029151
Toyota Center (Houston),Houston,TX,"Toyota Center (Houston), Houston, TX",-95.3621005,29.75076039999999,establishment,rooftop,"1510 polk st, houston, tx 77002, usa",29.75236538029149,29.7496674197085,-95.36094361970848,-95.3636415802915
The Nest,Sacramento,CA,"The Nest, Sacramento, CA",-121.4266147,38.56196389999999,establishment,geometric_center,"moraga way, sacramento, ca 95826, usa",38.56340143029149,38.56070346970849,-121.4250911697085,-121.4277891302915
Worthington Arena,Bozeman,MT,"Worthington Arena, Bozeman, MT",-111.0506118,45.6633982,establishment,rooftop,"1 bobcat cir, bozeman, mt 59717, usa",45.6643539802915,45.6616560197085,-111.0492643197085,-111.0519622802915
Betty Engelstad Sioux Center,Grand Forks,ND,"Betty Engelstad Sioux Center, Grand Forks, ND",-97.0714417,47.9275954,premise,rooftop,"englestad (betty) sioux center, grand forks, nd 58203, usa",47.92894433029149,47.92624636970849,-97.07008309999999,-97.07367099999999
J. Lawrence Walkup Skydome,Flagstaff,AZ,"J. Lawrence Walkup Skydome, Flagstaff, AZ",-111.6528193,35.1805057,establishment,rooftop,"1705 s san francisco st, flagstaff, az 86001, usa",35.1817239302915,35.1790259697085,-111.6508403697085,-111.6535383302915
Hard Rock Hotel Riviera Maya,Cancun,Mexico,"Hard Rock Hotel Riviera Maya, Cancun, Mexico",-86.8515279,21.161908,locality,approximate,"cancún, quintana roo, mexico",21.2129226,21.0297632,-86.74054009999999,-86.9579266
Imperial Arena,Nassau,Bahamas,"Imperial Arena, Nassau, Bahamas",-77.3503609,25.0443312,locality,approximate,"nassau, the bahamas",25.0862208,24.9789003,-77.2582627,-77.5559234
MGM Grand,Las Vegas,NV,"MGM Grand, Las Vegas, NV",-115.1391009,36.171563,locality,approximate,"las vegas, nv, usa",36.3,35.95,-114.95,-115.4
McCamish Pavilion,Atlanta,GA,"McCamish Pavilion, Atlanta, GA",-84.39277659999999,33.7808132,establishment,rooftop,"965 fowler st nw, atlanta, ga 30318, usa",33.7823463302915,33.7796483697085,-84.3913214697085,-84.39401943029151
The HTC Center,Conway,SC,"The HTC Center, Conway, SC",-79.01555739999999,33.7991445,establishment,rooftop,"104 founders dr, conway, sc 29526, usa",33.8007860302915,33.7980880697085,-79.01411161970849,-79.01680958029151
McBrayer Arena,Richmond,KY,"McBrayer Arena, Richmond, KY",-84.3012445,37.7373749,premise,rooftop,"alumni coliseum, 641 eastern bypass, richmond, ky 40475, usa",37.7387047302915,37.7360067697085,-84.2999341697085,-84.30263213029151
Events Center (Binghamton),Binghamton,NY,"Events Center (Binghamton), Binghamton, NY",-75.97195719999999,42.0934421,establishment,rooftop,"4400 vestal pkwy e, vestal, ny 13850, usa",42.0944292802915,42.0917313197085,-75.9706521197085,-75.97335008029151
Dave Aaron Arena,Clarksville,TN,"Dave Aaron Arena, Clarksville, TN",-87.3594528,36.5297706,locality,approximate,"clarksville, tn, usa",36.641761,36.4788489,-87.2107339,-87.482511
G.B. Hodge Center,Spartanburg,SC,"G.B. Hodge Center, Spartanburg, SC",-81.9688594,34.9957985,establishment,rooftop,"365 hodge dr, spartanburg, sc 29303, usa",34.9968204802915,34.9941225197085,-81.967741719708485,-81.97043968029149
Williams Arena at Minges Coliseum,Greenville,NC,"Williams Arena at Minges Coliseum, Greenville, NC",-77.3669814,35.5974775,establishment,rooftop,"200 ficklen dr, greenville, nc 27858, usa",35.5990553302915,35.5963573697085,-77.36628786970849,-77.36898583029149
Rose Hill Gymnasium,Bronx,NY,"Rose Hill Gymnasium, Bronx, NY",-73.88376509999999,40.862211,establishment,rooftop,"465 e fordham rd, bronx, ny 10458, usa",40.8633943802915,40.8606964197085,-73.88275611970849,-73.8854540802915
Physical Education Complex,Baltimore,MD,"Physical Education Complex, Baltimore, MD",-76.65713509999999,39.3153798,establishment,geometric_center,"baltimore, md 21216, usa",39.3158143802915,39.3131164197085,-76.6563365,-76.6593681
John J. Lee Amphitheater,New Haven,CT,"John J. Lee Amphitheater, New Haven, CT",-72.9305569,41.3139597,premise,rooftop,"payne whitney gymnasium, 70 tower pkwy, new haven, ct 06511, usa",41.31545413029149,41.31275616970849,-72.9294214697085,-72.93211943029151
Pritchard Gymnasium,Stony Brook,NY,"Pritchard Gymnasium, Stony Brook, NY",-73.1253423,40.9171513,establishment,rooftop,"sports complex, stony brook, ny 11790, usa",40.9184056802915,40.9157077197085,-73.12403136970849,-73.12672933029151
Athletics Center O'rena,Rochester,MI,"Athletics Center O'rena, Rochester, MI",-83.21313549999999,42.6740455,premise,rooftop,"recreation and athletics center, rochester, mi 48309, usa",42.6752588302915,42.6725608697085,-83.21179596970849,-83.2144939302915
VyStar Veterans Memorial Arena,Jacksonville,FL,"VyStar Veterans Memorial Arena, Jacksonville, FL",-81.6450447,30.3258872,establishment,rooftop,"300 a philip randolph blvd, jacksonville, fl 32202, usa",30.3274429802915,30.3247450197085,-81.64329281970849,-81.6459907802915
Puerto Vallarta International Convention Center,Puerto Vallarta,Mexico,"Puerto Vallarta International Convention Center, Puerto Vallarta, Mexico",-105.2253316,20.653407,locality,approximate,"puerto vallarta, jalisco, mexico",20.7001142,20.5816292,-105.1781795,-105.270869
The Super Pit,Denton,TX,"The Super Pit, Denton, TX",-97.15410589999999,33.20863,establishment,rooftop,"601, coliseum, n texas blvd, denton, tx 76201, usa",33.2103372302915,33.2076392697085,-97.15286696970848,-97.1555649302915
Hertz Arena,Estero,FL,"Hertz Arena, Estero, FL",-81.7788085,26.4406681,establishment,rooftop,"11000 everblades parkway, estero, fl 33928, usa",26.4422751302915,26.4395771697085,-81.7774280197085,-81.7801259802915
Robins Center,Richmond,VA,"Robins Center, Richmond, VA",-77.5387725,37.5806023,establishment,rooftop,"365 college rd, richmond, va 23173, usa",37.5818672802915,37.5791693197085,-77.53776796970848,-77.5404659302915
TD Garden,Boston,MA,"TD Garden, Boston, MA",-71.062146,42.366198,establishment,rooftop,"100 legends way, boston, ma 02114, usa",42.3673611802915,42.3646632197085,-71.0601185697085,-71.0628165302915
Ralston Sports and Events Center,Omaha,NE,"Ralston Sports and Events Center, Omaha, NE",-96.03941789999999,41.196002,establishment,rooftop,"8014 wildewood dr, omaha, ne 68127, usa",41.1972773802915,41.1945794197085,-96.03795651970849,-96.0406544802915
GCU Arena,Phoenix,AZ,"GCU Arena, Phoenix, AZ",-112.1286043,33.5097451,establishment,rooftop,"3300 w camelback rd building 38, phoenix, az 85017, usa",33.5109438302915,33.5082458697085,-112.1272549697085,-112.1299529302915
Swinney Recreation Center,Kansas City,MO,"Swinney Recreation Center, Kansas City, MO",-94.57876879999999,39.0352674,establishment,rooftop,"5030 holmes st, kansas city, mo 64110, usa",39.0362767302915,39.0335787697085,-94.57703966970848,-94.5797376302915
ShoWare Center,Kent,WA,"ShoWare Center, Kent, WA",-122.2398816,47.3870253,establishment,rooftop,"625 w james st, kent, wa 98032, usa",47.3885462302915,47.3858482697085,-122.2382859697085,-122.2409839302915
UVI Sports & Fitness Center,St. Thomas,Virgin Islands,"UVI Sports & Fitness Center, St. Thomas, Virgin Islands",-64.9728709,18.3399285,establishment,geometric_center,"st thomas, charlotte amalie west, st thomas 00802, usvi",18.3415243302915,18.3388263697085,-64.97145906970849,-64.97415703029151
South Point Arena,Las Vegas,NV,"South Point Arena, Las Vegas, NV",-115.1752286,36.0112358,establishment,rooftop,"9777 s las vegas blvd, las vegas, nv 89183, usa",36.0126453302915,36.00994736970851,-115.1733771197085,-115.1760750802915
Hilliard Gates Sports Center,Fort Wayne,IN,"Hilliard Gates Sports Center, Fort Wayne, IN",-85.1075116,41.1192022,establishment,geometric_center,"fort wayne, in 46835, usa",41.1205954802915,41.1178975197085,-85.10565741970849,-85.1083553802915
The DakotaDome,Vermillion,SD,"The DakotaDome, Vermillion, SD",-96.927943,42.7911532,establishment,rooftop,"1101 n dakota st, vermillion, sd 57069, usa",42.79298173029149,42.79028376970849,-96.92640631970849,-96.9291042802915
Trojan Arena,Troy,AL,"Trojan Arena, Troy, AL",-85.9523887,31.8022455,establishment,geometric_center,"troy, al 36082, usa",31.8039085302915,31.8012105697085,-85.9509510197085,-85.95364898029152
Pinnacle Bank Arena,Lincoln,NE,"Pinnacle Bank Arena, Lincoln, NE",-96.7126194,40.817931,establishment,rooftop,"400 pinnacle arena dr, lincoln, ne 68508, usa",40.81937938029151,40.81668141970851,-96.7116617697085,-96.7143597302915
Simmons Bank Arena,North Little Rock,AR,"Simmons Bank Arena, North Little Rock, AR",-92.26432349999999,34.7550895,establishment,geometric_center,"1 simmons bank arena drive, north little rock, ar 72114, usa",34.7563748802915,34.7536769197085,-92.2636612197085,-92.2663591802915
MVP Arena,Albany,NY,"MVP Arena, Albany, NY",-73.7548781,42.6486097,establishment,rooftop,"51 s pearl st, albany, ny 12207, usa",42.6496591302915,42.6469611697085,-73.7531251697085,-73.7558231302915
KeyBank Center,Buffalo,NY,"KeyBank Center, Buffalo, NY",-78.8765439,42.8750811,establishment,rooftop,"1 seymour h knox iii plaza, buffalo, ny 14203, usa",42.8768247302915,42.8741267697085,-78.8750089197085,-78.87770688029151
Reynolds Coliseum,Raleigh,NC,"Reynolds Coliseum, Raleigh, NC",-78.6699257,35.7835159,establishment,rooftop,"2411 dunn ave, raleigh, nc 27607, usa",35.7851881802915,35.7824902197085,-78.66842241970849,-78.6711203802915
FLA Live Arena,Sunrise,FL,"FLA Live Arena, Sunrise, FL",-80.3255204,26.1584958,establishment,rooftop,"1 panther pkwy, sunrise, fl 33323, usa",26.1601672302915,26.1574692697085,-80.3243240197085,-80.3270219802915
Kaua`i High School Gymnasium,Lihue,HI,"Kaua`i High School Gymnasium, Lihue, HI",-159.360371,21.958976,establishment,rooftop,"3577 lala rd, lihue, hi 96766, usa",21.9605792302915,21.9578812697085,-159.3590415197085,-159.3617394802915
Dugan Wellness Center,Corpus Christi,TX,"Dugan Wellness Center, Corpus Christi, TX",-97.3243463,27.711429,establishment,rooftop,"6300 ocean dr, corpus christi, tx 78412, usa",27.7125726302915,27.7098746697085,-97.3235219197085,-97.3262198802915
Sams Gymnasium,San Antonio,TX,"Sams Gymnasium, San Antonio, TX",-98.486807,29.332844,route,geometric_center,"sams dr, san antonio, tx 78221, usa",29.3341908802915,29.3314929197085,-98.4815027,-98.4917926
Alice P. McDermott Convocation Center,San Antonio,TX,"Alice P. McDermott Convocation Center, San Antonio, TX",-98.46941389999999,29.4681469,establishment,geometric_center,"san antonio, tx 78212, usa",29.4694410802915,29.4667431197085,-98.4680011197085,-98.47069908029151
Junell Center/Stephens Arena,San Angelo,TX,"Junell Center/Stephens Arena, San Angelo, TX",-100.4580002,31.4370367,establishment,rooftop,"2235 s jackson st, san angelo, tx 76904, usa",31.4387154302915,31.4360174697085,-100.4566575697085,-100.4593555302915
Moody Coliseum (Abilene),Abilene,TX,"Moody Coliseum (Abilene), Abilene, TX",-99.7091578,32.4703933,establishment,geometric_center,"abilene, tx 79699, usa",32.4719735802915,32.4692756197085,-99.7078068697085,-99.71050483029151
BancorpSouth Arena,Tupelo,MS,"BancorpSouth Arena, Tupelo, MS",-88.6997306,34.259517,establishment,rooftop,"375 e main st, tupelo, ms 38804, usa",34.26087048029149,34.25817251970849,-88.69807041970849,-88.70076838029149
Lake Charles Civic Center,Lake Charles,LA,"Lake Charles Civic Center, Lake Charles, LA",-93.2193408,30.2278743,establishment,rooftop,"900 lakeshore dr, lake charles, la 70601, usa",30.2292179802915,30.2265200197085,-93.21795586970849,-93.2206538302915
SECU Arena,Towson,MD,"SECU Arena, Towson, MD",-76.61716129999999,39.3873801,establishment,rooftop,"8000 york rd, towson, md 21252, usa",39.3889806302915,39.3862826697085,-76.61566201970848,-76.6183599802915
The Pentagon,Sioux Falls,SD,"The Pentagon, Sioux Falls, SD",-96.7525946,43.5909304,route,geometric_center,"w pentagon pl, sioux falls, sd 57107, usa",43.5922781302915,43.5895801697085,-96.7487302,-96.75592329999999
Forbes Arena,Atlanta,GA,"Forbes Arena, Atlanta, GA",-84.4170941,33.7488526,establishment,rooftop,"forbes, arena, atlanta, ga 30314, usa",33.7503669302915,33.7476689697085,-84.41566591970849,-84.41836388029151
Von Braun Center,Huntsville,AL,"Von Braun Center, Huntsville, AL",-86.59028029999999,34.7266109,establishment,rooftop,"700 monroe st sw, huntsville, al 35801, usa",34.72859723029149,34.72589926970849,-86.58878661970849,-86.5914845802915
Costello Athletic Center,Lowell,MA,"Costello Athletic Center, Lowell, MA",-71.3241534,42.6555111,establishment,rooftop,"275 riverside st, lowell, ma 01854, usa",42.6566386802915,42.6539407197085,-71.3229085197085,-71.32560648029151
Memorial Gymnasium (ME),Orono,ME,"Memorial Gymnasium (ME), Orono, ME",-68.6686491,44.9030232,establishment,rooftop,"bennett, 18 gym dr, orono, me 04473, usa",44.9047003302915,44.9020023697085,-68.66839026970851,-68.67108823029152
Tsongas Center,Lowell,MA,"Tsongas Center, Lowell, MA",-71.3131956,42.650264,establishment,rooftop,"300 arcand dr, lowell, ma 01852, usa",42.6512349802915,42.6485370197085,-71.3118660197085,-71.31456398029151
Cross Insurance Center,Bangor,ME,"Cross Insurance Center, Bangor, ME",-68.77932849999999,44.7887999,establishment,rooftop,"515 main st, bangor, me 04401, usa",44.7902950302915,44.7875970697085,-68.77862406970848,-68.78132203029149
Spokane Arena,Spokane,WA,"Spokane Arena, Spokane, WA",-117.4221143,47.6664378,establishment,rooftop,"720 w mallon ave, spokane, wa 99201, usa",47.6680017802915,47.6653038197085,-117.4207547197085,-117.4234526802915
AT&T Stadium,Arlington,TX,"AT&T Stadium, Arlington, TX",NA,NA,NA,NA,NA,NA,NA,NA,NA
Moda Center,Portland,OR,"Moda Center, Portland, OR",-122.6668423,45.53156509999999,establishment,rooftop,"1 n center ct st, portland, or 97227, usa",45.5331393302915,45.53044136970851,-122.6664859697085,-122.6691839302915
Leflore County Civic Center,Greenwood,MS,"Leflore County Civic Center, Greenwood, MS",-90.1504145,33.5193708,establishment,rooftop,"200 ms-7, greenwood, ms 38930, usa",33.52073318029149,33.5180352197085,-90.1491429197085,-90.15184088029152
The Pinnacle,Clarksdale,MS,"The Pinnacle, Clarksdale, MS",-90.56989229999999,34.2541261,premise,rooftop,"the pinnacle, bennie s gooden ave, clarksdale, ms 38614, usa",34.2555146802915,34.2528167197085,-90.56861651970848,-90.5713144802915
Kress Events Center,Green Bay,WI,"Kress Events Center, Green Bay, WI",-87.91634839999999,44.5299824,establishment,rooftop,"2358 leon bond dr, green bay, wi 54311, usa",44.5306932302915,44.5279952697085,-87.91528316970849,-87.9179811302915
ESPN Wide World of Sports Complex,Orlando,FL,"ESPN Wide World of Sports Complex, Orlando, FL",-81.5563845,28.3381102,establishment,rooftop,"700 s victory way, orlando, fl 34747, usa",28.3411067,28.3372298,-81.5498018,-81.5563845
Baltimore Arena,Baltimore,MD,"Baltimore Arena, Baltimore, MD",-76.6187071,39.2885729,establishment,rooftop,"baltimore arena, 201 w baltimore st, baltimore, md 21201, usa",39.2898912802915,39.28719331970851,-76.61766896970849,-76.6203669302915
Harrah's Cherokee Center,Asheville,NC,"Harrah's Cherokee Center, Asheville, NC",-82.555619,35.5971794,establishment,rooftop,"87 haywood st, asheville, nc 28801, usa",35.5984846802915,35.5957867197085,-82.5543497697085,-82.5570477302915
Nashville Municipal Auditorium,Nashville,TN,"Nashville Municipal Auditorium, Nashville, TN",-86.78229999999999,36.1675,establishment,rooftop,"417 4th ave n, nashville, tn 37201, usa",36.1685669302915,36.1658689697085,-86.78109056970848,-86.78378853029149
McDonough Arena,Washington,DC,"McDonough Arena, Washington, DC",-77.07742209999999,38.9076464,establishment,rooftop,"1340 west rd, washington, dc 20007, usa",38.9089956802915,38.9062977197085,-77.07627371970848,-77.07897168029149
Wilkerson-Greines Activity Center,Fort Worth,TX,"Wilkerson-Greines Activity Center, Fort Worth, TX",-97.28362369999999,32.6694346,establishment,rooftop,"5201 ca roberson blvd, fort worth, tx 76119, usa",32.6703753802915,32.6676774197085,-97.2818169697085,-97.28451493029151
MGM Grand Garden Arena,Las Vegas,NV,"MGM Grand Garden Arena, Las Vegas, NV",-115.1686019,36.1048502,establishment,rooftop,"mgm grand las vegas, 3799 s las vegas blvd, las vegas, nv 89109, usa",36.1058088302915,36.1031108697085,-115.1669441697085,-115.1696421302915
The Arena at Northwest FL St,Niceville,FL,"The Arena at Northwest FL St, Niceville, FL",-86.47882299999999,30.5385031,establishment,geometric_center,"niceville, fl 32578, usa",30.5400825802915,30.5373846197085,-86.4777951697085,-86.4804931302915
Scheels Arena,Fargo,ND,"Scheels Arena, Fargo, ND",-96.8755571,46.83555699999999,establishment,rooftop,"5225 31st ave s, fargo, nd 58104, usa",46.8365561802915,46.8338582197085,-96.87460136970849,-96.87729933029149
Bernard G. Johnson Coliseum,Huntsville,TX,"Bernard G. Johnson Coliseum, Huntsville, TX",-95.5462223,30.712918,establishment,rooftop,"1964 bobby k marks drive, huntsville, tx 77340, usa",30.7142680802915,30.7115701197085,-95.54466861970849,-95.54736658029151
Sanford Pentagon,Sioux Falls,SD,"Sanford Pentagon, Sioux Falls, SD",-96.7547893,43.5916852,establishment,rooftop,"2210 w pentagon pl, sioux falls, sd 57107, usa",43.5926600802915,43.5899621197085,-96.75354881970848,-96.7562467802915
Alaska Airlines Center,Anchorage,AK,"Alaska Airlines Center, Anchorage, AK",-149.8141165,61.1881625,establishment,rooftop,"3550 providence dr, anchorage, ak 99508, usa",61.19002503029149,61.18732706970849,-149.8123563697085,-149.8150543302915
Allen County War Memorial Coliseum,Fort Wayne,IN,"Allen County War Memorial Coliseum, Fort Wayne, IN",-85.12421119999999,41.1156931,establishment,rooftop,"4000 parnell ave, fort wayne, in 46805, usa",41.1170752302915,41.11437726970851,-85.1226288197085,-85.12532678029152
PPL Center,Allentown,PA,"PPL Center, Allentown, PA",-75.472915,40.602668,establishment,rooftop,"701 hamilton st, allentown, pa 18101, usa",40.6040070302915,40.6013090697085,-75.47157611970849,-75.47427408029151
Island FCU Arena,Stony Brook,NY,"Island FCU Arena, Stony Brook, NY",-73.1253564,40.9173538,establishment,rooftop,"100 circle rd, stony brook, ny 11794, usa",40.9184342302915,40.9157362697085,-73.1234591197085,-73.12615708029152
U.S.C.G. AIR STATION BORINQUEN,Aguadilla,Puerto Rico,"U.S.C.G. AIR STATION BORINQUEN, Aguadilla, Puerto Rico",-67.1314665,18.4967036,establishment,rooftop,"puerto rico, 405 hangar rd, aguadilla pueblo, aguadilla 00603, puerto rico",18.4984068302915,18.4957088697085,-67.13025236970849,-67.13295033029151
War Memorial Gym,Wailuku,HI,"War Memorial Gym, Wailuku, HI",-156.4891897,20.8903665,establishment,rooftop,"700 halia nakoa st, wailuku, hi 96793, usa",20.8914499802915,20.8887520197085,-156.4878359197085,-156.4905338802915
Mississippi Coliseum,Jackson,MS,"Mississippi Coliseum, Jackson, MS",-90.1719383,32.3000947,establishment,rooftop,"1207 mississippi st, jackson, ms 39202, usa",32.30100073029149,32.29830276970849,-90.17069566970848,-90.1733936302915
Freedom Hall Civic Center,Johnson City,TN,"Freedom Hall Civic Center, Johnson City, TN",-82.3752463,36.3246946,establishment,rooftop,"1320 pactolas rd, johnson city, tn 37604, usa",36.3256418302915,36.3229438697085,-82.37339291970848,-82.3760908802915
The Fort,Alexandria,LA,"The Fort, Alexandria, LA",-91.96233269999999,30.9842977,administrative_area_level_1,approximate,"louisiana, usa",33.019544,28.8551271,-88.758388,-94.043352
LANDERS CENTER,Southaven,MS,"LANDERS CENTER, Southaven, MS",-89.99652549999999,34.9270516,establishment,rooftop,"4560 venture dr #11, southaven, ms 38671, usa",34.9285935802915,34.9258956197085,-89.9951652697085,-89.9978632302915
Royal Farms Arena,Baltimore,MD,"Royal Farms Arena, Baltimore, MD",-76.6187071,39.2885729,establishment,rooftop,"baltimore arena, 201 w baltimore st, baltimore, md 21201, usa",39.2898912802915,39.28719331970851,-76.61766896970849,-76.6203669302915
Denny Sanford Premier Center,Sioux Falls,SD,"Denny Sanford Premier Center, Sioux Falls, SD",-96.75036399999999,43.5614471,establishment,rooftop,"1201 west ave, sioux falls, sd 57104, usa",43.5623957802915,43.5596978197085,-96.74907891970848,-96.7517768802915
Pope Physical Education Center,Brooklyn,NY,"Pope Physical Education Center, Brooklyn, NY",-73.99216520000002,40.6932301,establishment,rooftop,"180 remsen st #4305, brooklyn, ny 11201, usa",40.6946623302915,40.6919643697085,-73.9907109197085,-73.99340888029151
Legacy Arena at BJCC,Birmingham,AL,"Legacy Arena at BJCC, Birmingham, AL",-86.81285679999999,33.5238723,establishment,rooftop,"1898 9th ave n, birmingham, al 35203, usa",33.52521803029149,33.52252006970849,-86.8115089197085,-86.81420688029151
Miami-Dade Arena,Miami,FL,"Miami-Dade Arena, Miami, FL",-80.18696899999999,25.7814014,establishment,rooftop,"601 biscayne blvd, miami, fl 33132, usa",25.7825077802915,25.7798098197085,-80.18529261970848,-80.1879905802915
Bloch Arena,Pearl Harbor,HI,"Bloch Arena, Pearl Harbor, HI",-157.9412764,21.3477415,establishment,rooftop,"224 a ave, honolulu, hi 96818, usa",21.3490904802915,21.3463925197085,-157.9399274197085,-157.9426253802915
Rimrock Auto Arena,Billings,MT,"Rimrock Auto Arena, Billings, MT",-108.4775334,45.8002688,establishment,rooftop,"308 6th ave n, billings, mt 59101, usa",45.8017922302915,45.7990942697085,-108.4760812697085,-108.4787792302915
Cambria County War Memorial Arena,Johnstown,PA,"Cambria County War Memorial Arena, Johnstown, PA",-78.9231824,40.32336859999999,establishment,rooftop,"326 napoleon st #1780, johnstown, pa 15901, usa",40.3247308802915,40.32203291970851,-78.9218656697085,-78.9245636302915
Cox Pavilion,Las Vegas,NV,"Cox Pavilion, Las Vegas, NV",-115.1433436,36.1044509,establishment,rooftop,"4505 s maryland pkwy #2022, las vegas, nv 89154, usa",36.10572078029151,36.10302281970851,-115.1428327197085,-115.1455306802915
Mercedes-Benz Arena,Shanghai,China,"Mercedes-Benz Arena, Shanghai, China",121.493103,31.1892515,premise,rooftop,"mei sai de si - ben chi wen hua zhong xin, 白莲泾 pu dong xin qu, shang hai shi, china, 200011",31.19039888029149,31.18770091970849,121.4945439802915,121.4918460197085
Prairie Capital Convention Center,Springfield,IL,"Prairie Capital Convention Center, Springfield, IL",-89.64425299999999,39.801085,establishment,rooftop,"1, convention center plaza, springfield, il 62701, usa",39.8021452302915,39.7994472697085,-89.64324161970849,-89.6459395802915
Bon Secours Wellness Arena,Greenville,SC,"Bon Secours Wellness Arena, Greenville, SC",-82.39152519999999,34.8526077,establishment,rooftop,"650 n academy st, greenville, sc 29601, usa",34.8540801302915,34.8513821697085,-82.3903578697085,-82.3930558302915
Esbjornson Gymnasium,Glassboro,NJ,"Esbjornson Gymnasium, Glassboro, NJ",-75.1184565,39.7108906,establishment,geometric_center,"north campus drive, glassboro, nj 08028, usa",39.7122758302915,39.7095778697085,-75.11711636970848,-75.11981433029149
Roberto Clemente Coliseum,San Juan,Puerto Rico,"Roberto Clemente Coliseum, San Juan, Puerto Rico",-66.0755353,18.4158296,establishment,geometric_center,"cw8f+8qp, av. franklin delano roosevelt, san juan, 00920, puerto rico",18.4174402802915,18.4147423197085,-66.07432186970848,-66.0770198302915
The Sandy and John Black Pavilion at Ole Miss,Oxford,MS,"The Sandy and John Black Pavilion at Ole Miss, Oxford, MS",-89.53601599999999,34.3628353,establishment,rooftop,"762 all american drive, oxford, ms 38655, usa",34.36464773029149,34.3619497697085,-89.53453861970848,-89.53723658029149
Indiana Farmers Coliseum,Indianapolis,IN,"Indiana Farmers Coliseum, Indianapolis, IN",-86.1350987,39.827601,establishment,rooftop,"1202 e 38th st, indianapolis, in 46205, usa",39.8280464302915,39.8253484697085,-86.13380376970849,-86.1365017302915
REC HALL,University Park,PA,"REC HALL, University Park, PA",-77.86984989999999,40.7958763,establishment,geometric_center,"burrowes rd, university park, pa 16802, usa",40.79736948029149,40.79467151970849,-77.86787056970849,-77.87056853029151
Abrams Gym,Fort Hood,TX,"Abrams Gym, Fort Hood, TX",-97.7772131,31.1382238,establishment,geometric_center,"bldg 23001, support ave & 62nd st, fort hood, tx 76544, usa",31.1398988302915,31.1372008697085,-97.7762170197085,-97.77891498029152
Dothan Civic Center,Dothan,AL,"Dothan Civic Center, Dothan, AL",-85.39011649999999,31.2248855,city_hall,rooftop,"126 n st andrews st #214, dothan, al 36303, usa",31.2260539302915,31.2233559697085,-85.3888170697085,-85.3915150302915
Baxter Arena,Omaha,NE,"Baxter Arena, Omaha, NE",-96.0129592,41.2361893,establishment,rooftop,"2425 s 67th st, omaha, ne 68182, usa",41.2377346802915,41.2350367197085,-96.0120756197085,-96.0147735802915
Portland Expo Center (ME),Portland,ME,"Portland Expo Center (ME), Portland, ME",-70.27683449999999,43.6560355,establishment,rooftop,"239 park ave, portland, me 04102, usa",43.6572917302915,43.65459376970851,-70.2756016697085,-70.2782996302915
Michael B. Fleming Gymnasium,Greensboro,NC,"Michael B. Fleming Gymnasium, Greensboro, NC",-79.8127179,36.0693429,establishment,rooftop,"1408 walker ave, greensboro, nc 27412, usa",36.0702274802915,36.0675295197085,-79.81140186970848,-79.8140998302915
Shelton Gym,Nacogdoches,TX,"Shelton Gym, Nacogdoches, TX",-94.6471165,31.61924389999999,establishment,rooftop,"1817 wilson dr, nacogdoches, tx 75965, usa",31.6208102302915,31.6181122697085,-94.64541701970849,-94.64811498029151
The Kroc Center (IL),Chicago,IL,"The Kroc Center (IL), Chicago, IL",-87.652565,41.6783729,amusement_park,rooftop,"1250 w 119th st, chicago, il 60643, usa",41.6799965302915,41.6772985697085,-87.6514909197085,-87.65418888029151
Verties Sails Gymnasium,Memphis,TN,"Verties Sails Gymnasium, Memphis, TN",-89.9761941,35.10839199999999,establishment,rooftop,"2582 park ave, memphis, tn 38114, usa",35.1097904302915,35.1070924697085,-89.97483071970849,-89.9775286802915
Mabee Athletic Complex,Abilene,TX,"Mabee Athletic Complex, Abilene, TX",-99.7365717,32.4766833,establishment,rooftop,"2200 simmons ave, abilene, tx 79601, usa",32.4779112802915,32.4752133197085,-99.73523256970849,-99.73793053029151
Gold Dome,Shreveport,LA,"Gold Dome, Shreveport, LA",-93.72994229999999,32.4808845,establishment,rooftop,"3482 dixie dr, shreveport, la 71104, usa",32.48212563029151,32.47942766970851,-93.72886081970849,-93.7315587802915
Petco Park,San Diego,CA,"Petco Park, San Diego, CA",-117.1570422,32.7075941,establishment,rooftop,"100 park blvd, san diego, ca 92101, usa",32.7091908802915,32.7064929197085,-117.1549981,-117.1582648
SANTA ANA STAR CENTER,Rio Rancho,NM,"SANTA ANA STAR CENTER, Rio Rancho, NM",-106.6867904,35.3091758,establishment,rooftop,"3001 civic center cir ne, rio rancho, nm 87144, usa",35.3101393302915,35.3074413697085,-106.6849011697085,-106.6875991302915
Joe Louis Arena,Detroit,MI,"Joe Louis Arena, Detroit, MI",-83.0526708,42.3252325,establishment,geometric_center,"joe louis arena, detroit, mi 48226, usa",42.32660628029149,42.32390831970849,-83.05123371970849,-83.05393168029151
Reno Events Center,Reno,NV,"Reno Events Center, Reno, NV",-119.8124923,39.531044,establishment,rooftop,"400 university wy, reno, nv 89501, usa",39.5323545802915,39.5296566197085,-119.8114817697085,-119.8141797302915
Veterans Memorial Arena,Jacksonville,FL,"Veterans Memorial Arena, Jacksonville, FL",-81.6450447,30.3258872,establishment,rooftop,"300 a philip randolph blvd, jacksonville, fl 32202, usa",30.3274429802915,30.3247450197085,-81.64329281970849,-81.6459907802915
RP Funding Center,Lakeland,FL,"RP Funding Center, Lakeland, FL",-81.9630784,28.04074,establishment,rooftop,"701 w lime st, lakeland, fl 33815, usa",28.04247568029151,28.0397777197085,-81.96125816970849,-81.96395613029149
T-Mobile Arena,Las Vegas,NV,"T-Mobile Arena, Las Vegas, NV",-115.178195,36.102812,establishment,rooftop,"the park vegas, 3780 s las vegas blvd, las vegas, nv 89109, usa",36.1046565802915,36.1019586197085,-115.1764637697085,-115.1791617302915
Toyota Center WA,Kennewick,WA,"Toyota Center WA, Kennewick, WA",-119.2168522,46.2196928,establishment,rooftop,"7000 w grandridge blvd, kennewick, wa 99336, usa",46.2209126302915,46.2182146697085,-119.2156911697085,-119.2183891302915
Golden 1 Center,Sacramento,CA,"Golden 1 Center, Sacramento, CA",-121.4996602,38.5802045,establishment,rooftop,"500 david j stern walk, sacramento, ca 95814, usa",38.5820949,38.5792329,-121.4975054,-121.5010357
H-E-B Center at Cedar Park,Cedar Park,TX,"H-E-B Center at Cedar Park, Cedar Park, TX",-97.819789599999993,30.5415189,establishment,rooftop,"2100 ave of the stars, cedar park, tx 78613, usa",30.5426088802915,30.5399109197085,-97.81869766970851,-97.82139563029152
Stockton Arena,Stockton,CA,"Stockton Arena, Stockton, CA",-121.2960735,37.9561651,establishment,rooftop,"248 w fremont st, stockton, ca 95203, usa",37.9576946802915,37.9549967197085,-121.2943443697085,-121.2970423302915
'Iolani School Gym,Honolulu,HI,"'Iolani School Gym, Honolulu, HI",-157.8253249,21.2855956,establishment,rooftop,"563 kamoku st, honolulu, hi 96826, usa",21.2869727302915,21.2842747697085,-157.8239738697085,-157.8266718302915
Savannah Civic Center,M M,GA,"Savannah Civic Center, M M, GA",-81.0969503,32.07696,establishment,rooftop,"301 w oglethorpe ave, savannah, ga 31401, usa",32.0787402802915,32.0760423197085,-81.09547421970849,-81.0981721802915
Ball Arena,Denver,CO,"Ball Arena, Denver, CO",-105.0076028,39.7486565,establishment,rooftop,"1000 chopper cir, denver, co 80204, usa",39.7499343,39.7451941,-105.0050925,-105.009774
Tuba City HS Gym,Tuba City,AZ,"Tuba City HS Gym, Tuba City, AZ",-111.2234592,36.1266657,establishment,rooftop,"160 warrior dr, tuba city, az 86045, usa",36.1278837802915,36.1251858197085,-111.2222573197085,-111.2249552802915
Glens Falls Civic Center,Glens Falls,NY,"Glens Falls Civic Center, Glens Falls, NY",-73.6418534,43.3081669,establishment,rooftop,"1 civic center plaza, glens falls, ny 12801, usa",43.3092921302915,43.3065941697085,-73.6403758197085,-73.64307378029152
Redhawk Center,Seattle,WA,"Redhawk Center, Seattle, WA",-122.313606,47.6073181,establishment,rooftop,"550 14th ave, seattle, wa 98112, usa",47.6088963302915,47.6061983697085,-122.3125409697085,-122.3152389302915
Quest Multisport,Chicago,IL,"Quest Multisport, Chicago, IL",-87.6923655,41.8733479,establishment,rooftop,"2641 w harrison st, chicago, il 60612, usa",41.874929880291504,41.8722319197085,-87.69132736970849,-87.6940253302915
ICI Center,Daytona Beach,FL,"ICI Center, Daytona Beach, FL",-81.0467428,29.1912551,establishment,geometric_center,"s clyde morris blvd, daytona beach, fl 32114, usa",29.1925597302915,29.1898617697085,-81.0453595697085,-81.0480575302915
Brookshire Grocery Arena,Bossier City,LA,"Brookshire Grocery Arena, Bossier City, LA",-93.67380279999999,32.4654921,establishment,rooftop,"2000 brookshire arena drive, bossier city, la 71112, usa",32.46695743029149,32.46425946970849,-93.67264966970849,-93.6753476302915
North Charleston Coliseum,North Charleston,SC,"North Charleston Coliseum, North Charleston, SC",-80.02243399999999,32.8654952,establishment,rooftop,"5001 coliseum dr, north charleston, sc 29418, usa",32.86646258029149,32.86376461970849,-80.0210535697085,-80.0237515302915
L. Gale Lemerand Fitness Center,Daytona Beach,FL,"L. Gale Lemerand Fitness Center, Daytona Beach, FL",-81.0500153,29.1886157,establishment,rooftop,"1 aerospace blvd #331, daytona beach, fl 32114, usa",29.1900747302915,29.1873767697085,-81.0489302197085,-81.0516281802915
KEZAR PAVILION,San Francisco,CA,"KEZAR PAVILION, San Francisco, CA",-122.4538889,37.7675,establishment,rooftop,"755 stanyan st, san francisco, ca 94117, usa",37.76885473029149,37.76615676970849,-122.4528012697085,-122.4554992302915
Baoshan Sports Center,Shanghai,China,"Baoshan Sports Center, Shanghai, China",121.491878,31.3929,establishment,geometric_center,"9fvr+5q2, yong le lu, bao shan qu, shang hai shi, china, 200940",31.3941767302915,31.3914787697085,121.4932735302915,121.4905755697085
Wintrust Arena,Chicago,IL,"Wintrust Arena, Chicago, IL",-87.6213427,41.8537349,establishment,rooftop,"200 e cermak rd, chicago, il 60616, usa",41.8549957302915,41.8522977697085,-87.62010861970852,-87.62280658029152
Montego Bay Convention Centre,Montego Bay,Jamaica,"Montego Bay Convention Centre, Montego Bay, Jamaica",-77.8204727,18.5198974,establishment,rooftop,"rose hall road, rose hall, montego bay, jamaica",18.5213959302915,18.5186979697085,-77.8192456197085,-77.8219435802915
Santander Arena,Reading,PA,"Santander Arena, Reading, PA",-75.9236111,40.335,establishment,rooftop,"700 penn st, reading, pa 19602, usa",40.3364722302915,40.3337742697085,-75.9217042697085,-75.9244022302915
Veterans Memorial Coliseum,Portland,OR,"Veterans Memorial Coliseum, Portland, OR",-122.6693299,45.532141,establishment,rooftop,"300 n ramsay wy, portland, or 97227, usa",45.5331216302915,45.5304236697085,-122.6678526697085,-122.6705506302915
Nassau Veterans Memorial Coliseum,Uniondale,NY,"Nassau Veterans Memorial Coliseum, Uniondale, NY",-73.5906528,40.7232778,establishment,rooftop,"1255 hempstead tpke, uniondale, ny 11553, usa",40.7242961302915,40.7215981697085,-73.58852929999999,-73.5915576
John Gray Gymnasium,George Town,Cayman Islands,"John Gray Gymnasium, George Town, Cayman Islands",-81.3843615,19.2782187,establishment,rooftop,"115 olympic way, george town, cayman islands",19.2796193302915,19.2769213697085,-81.3827986197085,-81.3854965802915
Little Caesars Arena,Detroit,MI,"Little Caesars Arena, Detroit, MI",-83.0552673,42.3411026,establishment,rooftop,"2645 woodward ave, detroit, mi 48201, usa",42.3429958802915,42.3402979197085,-83.05359151970849,-83.0562894802915
Jerry Richardson Indoor Stadium,Spartanburg,SC,"Jerry Richardson Indoor Stadium, Spartanburg, SC",-81.9336288,34.9634256,establishment,rooftop,"601 cummings st, spartanburg, sc 29303, usa",34.9648047302915,34.9621067697085,-81.9323984697085,-81.93509643029151
Ramstein Air Force Base,Ramstein,Germany,"Ramstein Air Force Base, Ramstein, Germany",7.597252399999999,49.440024,airport,geometric_center,"ramstein air base, 66877 ramstein-miesenbach, germany",49.4420829302915,49.4393849697085,7.597252399999999,7.574898699999999
Footprint Center,Phoenix,AZ,"Footprint Center, Phoenix, AZ",-112.0712003,33.445737,establishment,rooftop,"201 e jefferson st, phoenix, az 85004, usa",33.4472701802915,33.4445722197085,-112.0698972197085,-112.0725951802915
Alumni Hall (RI),Providence,RI,"Alumni Hall (RI), Providence, RI",-71.4368009,41.84612389999999,premise,rooftop,"peterson recreation center, providence, ri 02908, usa",41.8470305302915,41.84433256970851,-71.4353267697085,-71.4380247302915
Jake Nevin Field House,Villanova,PA,"Jake Nevin Field House, Villanova, PA",-75.33819799999999,40.033689,establishment,geometric_center,"800 e. lancaster ave, villanova, pa 19085, usa",40.0349385802915,40.0322406197085,-75.33700466970849,-75.3397026302915
Rapides Coliseum,Alexandria,LA,"Rapides Coliseum, Alexandria, LA",-92.5035205,31.2964699,establishment,rooftop,"5600 coliseum blvd, alexandria, la 71303, usa",31.2975721802915,31.2948742197085,-92.5021787197085,-92.5048766802915
Lubbock Municipal Coliseum,Lubbock,TX,"Lubbock Municipal Coliseum, Lubbock, TX",-101.8765151,33.5900689,establishment,rooftop,"lubbock municipal coliseum, 2720 drive of champions city bank auditorium, lubbock, tx 79409, usa",33.59152478029149,33.5888268197085,-101.8749864697085,-101.8776844302915
Sanford Coyote Sports Center,Vermillion,SD,"Sanford Coyote Sports Center, Vermillion, SD",-96.9278691,42.7900993,establishment,rooftop,"414 e clark st, vermillion, sd 57069, usa",42.79145578029151,42.78875781970851,-96.92651826970851,-96.92921623029152
Scheels Center,Fargo,ND,"Scheels Center, Fargo, ND",-96.7982612,46.9003733,establishment,rooftop,"1600 n university dr, fargo, nd 58105, usa",46.9017220302915,46.8990240697085,-96.7967973697085,-96.7994953302915
Convocation Center (LA),New Orleans,LA,"Convocation Center (LA), New Orleans, LA",-90.10926719999999,29.9638539,establishment,rooftop,"7900 stroelitz st, new orleans, la 70125, usa",29.9652688802915,29.9625709197085,-90.1078202697085,-90.1105182302915
SSE Arena,Belfast,Northern Ireland,"SSE Arena, Belfast, Northern Ireland",-5.914228,54.603643,establishment,rooftop,"2 queens quay, belfast bt3 9qq, uk",54.6047370802915,54.6020391197085,-5.913451519708497,-5.916149480291502
Winfield Dunn Center,Clarksville,TN,"Winfield Dunn Center, Clarksville, TN",-87.35668419999999,36.5363156,premise,rooftop,"dunn center, robb ave, clarksville, tn 37040, usa",36.5376522802915,36.5349543197085,-87.3555221697085,-87.35822013029151
Kendal Isaacs Gymnasium,Freeport,GB,"Kendal Isaacs Gymnasium, Freeport, GB",-78.6429019,26.5333159,locality,approximate,"freeport, the bahamas",26.5800838,26.4892706,-78.5565161,-78.7320184
NJIT Wellness and Events Center,Newark,NJ,"NJIT Wellness and Events Center, Newark, NJ",-74.1804421,40.74225149999999,establishment,rooftop,"104 lock st, newark, nj 07103, usa",40.74394918029149,40.7412512197085,-74.17932906970849,-74.18202703029151
Shaw Fitness Center,Fort Campbell,KY,"Shaw Fitness Center, Fort Campbell, KY",-87.46069609999999,36.6045132,establishment,rooftop,"7979 old construction rd, fort campbell, tn 42223, usa",36.6055508802915,36.6028529197085,-87.4591756697085,-87.4618736302915
Pamplin Sports Center,Portland,OR,"Pamplin Sports Center, Portland, OR",-122.6706655,45.4515284,establishment,geometric_center,"lewis and clark college, portland, or 97219, usa",45.4528429302915,45.4501449697085,-122.6696185197085,-122.6723164802915
Barry University Health & Sports Center,Miami Shores,FL,"Barry University Health & Sports Center, Miami Shores, FL",-80.19817929999999,25.8789241,establishment,rooftop,"11300 ne 2nd ave, miami shores, fl 33161, usa",25.8807602,25.8770005,-80.1941981,-80.20229479999999
Ford Center At The Star,Frisco,TX,"Ford Center At The Star, Frisco, TX",-96.8283481,33.1105911,establishment,rooftop,"9 cowboys way, frisco, tx 75034, usa",33.1119846302915,33.1092866697085,-96.82639036970849,-96.8290883302915
Riepma Arena,Midland,MI,"Riepma Arena, Midland, MI",-84.2741314,43.6278146,establishment,rooftop,"bennett sports center, midland, mi 48640, usa",43.6291635802915,43.6264656197085,-84.2732659197085,-84.27596388029151
Al McGuire Center,Milwaukee,WI,"Al McGuire Center, Milwaukee, WI",-87.92694709999999,43.0396337,establishment,rooftop,"770 n 12th st, milwaukee, wi 53233, usa",43.0409761802915,43.0382782197085,-87.92573246970849,-87.92843043029151
Delmar Fieldhouse,Houston,TX,"Delmar Fieldhouse, Houston, TX",-95.45716089999999,29.8028583,establishment,rooftop,"2020 mangum rd, houston, tx 77092, usa",29.8040913302915,29.8013933697085,-95.4562066697085,-95.45890463029151
Vancouver Convention Centre,Vancouver,BC,"Vancouver Convention Centre, Vancouver, BC",-123.116762,49.2894131,establishment,rooftop,"1055 canada pl, vancouver, bc v6c 0c3, canada",49.2903692302915,49.2876712697085,-123.1156494197085,-123.1183473802915
U.S. Bank Stadium,Minneapolis,MN,"U.S. Bank Stadium, Minneapolis, MN",-93.25749449999999,44.9736461,establishment,rooftop,"401 chicago ave, minneapolis, mn 55415, usa",44.9751498,44.9715983,-93.25503309999999,-93.26035499999999
St. John Arena,Columbus,OH,"St. John Arena, Columbus, OH",-83.0193378,40.0053172,establishment,rooftop,"410 woody hayes dr, columbus, oh 43210, usa",40.0066629302915,40.00396496970851,-83.0178490197085,-83.02054698029151
Fiserv Forum,Milwaukee,WI,"Fiserv Forum, Milwaukee, WI",-87.9173862,43.0450802,establishment,rooftop,"1111 vel r. phillips ave, milwaukee, wi 53203, usa",43.0460471302915,43.0433491697085,-87.9153680197085,-87.9180659802915
Suncoast Credit Union Arena,Fort Myers,FL,"Suncoast Credit Union Arena, Fort Myers, FL",-81.886866,26.5478179,establishment,rooftop,"13351 fsw pkwy, fort myers, fl 33919, usa",26.5495838802915,26.54688591970849,-81.88543826970849,-81.8881362302915
Fort Bliss,Fort Bliss,TX,"Fort Bliss, Fort Bliss, TX",-106.4213208,31.812438,locality,approximate,"fort bliss, tx, usa",31.833204,31.7889131,-106.3666279,-106.4405829
Viking Pavilion,Portland,OR,"Viking Pavilion, Portland, OR",-122.6862176,45.510601,establishment,rooftop,"930 sw hall st, portland, or 97201, usa",45.5119499802915,45.50925201970851,-122.6848686197085,-122.6875665802915
The Kelp Bed,Seaside,CA,"The Kelp Bed, Seaside, CA",-121.822098,36.6149217,locality,approximate,"seaside, ca, usa",36.654779,36.5968389,-121.789751,-121.874714
Schar Center,Elon,NC,"Schar Center, Elon, NC",-79.51080759999999,36.1080342,establishment,rooftop,"542 n williamson ave, elon, nc 27244, usa",36.1091653802915,36.1064674197085,-79.50917316970849,-79.5118711302915
St. Vincent-St. Mary High School,Akron,OH,"St. Vincent-St. Mary High School, Akron, OH",-81.5228418,41.0884624,establishment,rooftop,"15 n maple st, akron, oh 44303, usa",41.0899833302915,41.0872853697085,-81.5214008697085,-81.5240988302915
St. Elizabeths East Entertainment and Sports Arena,Washington,DC,"St. Elizabeths East Entertainment and Sports Arena, Washington, DC",-76.9913962,38.8469016,establishment,rooftop,"1100 oak dr se, washington, dc 20032, usa",38.8481561302915,38.8454581697085,-76.99020011970849,-76.9928980802915
NORTH ATHLETIC COMPLEX,Moon Township,PA,"NORTH ATHLETIC COMPLEX, Moon Township, PA",-80.22134770000001,40.51697670000001,administrative_area_level_3,approximate,"moon twp, pa, usa",40.556073,40.4554119,-80.140835,-80.2807625
Flowers Hall,Florence,AL,"Flowers Hall, Florence, AL",-87.68376889999999,34.8084699,establishment,rooftop,"701 n pine st, florence, al 35632, usa",34.8099150802915,34.8072171197085,-87.6821553697085,-87.6848533302915
McArthur Gymnasium,Saint Petersburg,FL,"McArthur Gymnasium, Saint Petersburg, FL",-82.6896837,27.717486,route,geometric_center,"mac arthur dr, st. petersburg, fl 33711, usa",27.7187944802915,27.7160965197085,-82.68800091970849,-82.6906988802915
Gateway Christian Academy,Bimini,Bahamas,"Gateway Christian Academy, Bimini, Bahamas",-79.2978993,25.7272608,administrative_area_level_1,approximate,"bimini, the bahamas",25.7822181,23.5008469,-79.2020084,-80.4992369
Legacy Center,Lake Charles,LA,"Legacy Center, Lake Charles, LA",-93.2100407,30.1755513,establishment,geometric_center,"lake charles, la 70607, usa",30.17690028029149,30.1742023197085,-93.20879371970848,-93.2114916802915
John A. Alario Sr. Event Center,Westwego,LA,"John A. Alario Sr. Event Center, Westwego, LA",-90.162753,29.9054572,establishment,rooftop,"2000 segnette blvd, westwego, la 70094, usa",29.9069980802915,29.90430011970851,-90.1615500697085,-90.1642480302915
Maddox Student Life Center,Hobbs,NM,"Maddox Student Life Center, Hobbs, NM",-103.1360403,32.7026116,locality,approximate,"hobbs, nm, usa",32.7873529,32.667563,-103.094786,-103.230924
Seabury Center Arena,Berea,KY,"Seabury Center Arena, Berea, KY",-84.2905114,37.5742278,establishment,rooftop,"313 n main st, berea, ky 40404, usa",37.57538968029149,37.57269171970849,-84.2889385197085,-84.29163648029152
Davis-Reid Alumni Gym,Georgetown,KY,"Davis-Reid Alumni Gym, Georgetown, KY",-84.55281599999999,38.2075914,establishment,rooftop,"400 e college st, georgetown, ky 40324, usa",38.20907218029149,38.20637421970849,-84.55145461970851,-84.55415258029151
Entertainment & Sports Arena,Washington,DC,"Entertainment & Sports Arena, Washington, DC",NA,NA,NA,NA,NA,NA,NA,NA,NA
Bill Harris Arena,Birmingham,AL,"Bill Harris Arena, Birmingham, AL",-86.8741623,33.4949483,establishment,rooftop,"2337 bessemer rd, birmingham, al 35208, usa",33.49636898029151,33.49367101970851,-86.87311956970848,-86.8758175302915
Joseph C. Rolle Activity Center,Flagstaff,AZ,"Joseph C. Rolle Activity Center, Flagstaff, AZ",-111.6553593,35.1768307,premise,rooftop,"rolle activity center, flagstaff, az 86001, usa",35.1782201802915,35.1755222197085,-111.6539692197085,-111.6566671802915
UPMC Events Center,Moon Township,PA,"UPMC Events Center, Moon Township, PA",-80.2147746,40.5203097,establishment,rooftop,"upmc events center, 6001 university blvd, moon twp, pa 15108, usa",40.5218352802915,40.51913731970851,-80.21330161970849,-80.21599958029151
Carmichael Arena,Chapel Hill,NC,"Carmichael Arena, Chapel Hill, NC",-79.0453647,35.9095753,establishment,rooftop,"310 south rd, chapel hill, nc 27514, usa",35.9109832302915,35.90828526970851,-79.0437415697085,-79.04643953029151
Chase Center,San Francisco,CA,"Chase Center, San Francisco, CA",-122.3878772,37.7680183,establishment,rooftop,"1 warriors way, san francisco, ca 94158, usa",37.7690455802915,37.7663476197085,-122.3861398,-122.3890909
Chaparral Center,Midland,TX,"Chaparral Center, Midland, TX",-102.102914,32.0277765,establishment,geometric_center,"midland, tx 79705, usa",32.0289698302915,32.0262718697085,-102.1016220697085,-102.1043200302915
Dickies Arena,Fort Worth,TX,"Dickies Arena, Fort Worth, TX",-97.36895659999999,32.7410208,establishment,rooftop,"1911 montgomery st, fort worth, tx 76107, usa",32.7423597302915,32.7396617697085,-97.36778226970848,-97.37048023029149
Covelli Centre,Youngstown,OH,"Covelli Centre, Youngstown, OH",-80.6479895,41.0962558,establishment,rooftop,"229 e front st, youngstown, oh 44503, usa",41.0978786802915,41.0951807197085,-80.6470321697085,-80.6497301302915
Scotiabank Arena,Toronto,ON,"Scotiabank Arena, Toronto, ON",-79.3790989,43.6434661,establishment,rooftop,"40 bay st., toronto, on m5j 2x2, canada",43.6450429802915,43.6423450197085,-79.3779485697085,-79.38064653029151
Baha Mar Convention Center,Nassau,Bahamas,"Baha Mar Convention Center, Nassau, Bahamas",-77.40018740000001,25.0703613,establishment,geometric_center,"3hcx+4ww, nassau, the bahamas",25.0718933302915,25.0691953697085,-77.3988221697085,-77.40152013029152
Kerr Fitness Center,Pittsburgh,PA,"Kerr Fitness Center, Pittsburgh, PA",-80.01165999999999,40.5691309,establishment,rooftop,"9000 babcock blvd, pittsburgh, pa 15237, usa",40.5703536802915,40.5676557197085,-80.01051986970849,-80.01321783029151
Firestone High School,Akron,OH,"Firestone High School, Akron, OH",-81.5639875,41.1186151,establishment,rooftop,"470 castle blvd, akron, oh 44313, usa",41.1199610302915,41.1172630697085,-81.56240326970848,-81.56510123029149
Chesapeake Employers Insurance Arena,Baltimore,MD,"Chesapeake Employers Insurance Arena, Baltimore, MD",-76.707431,39.2523419,establishment,rooftop,"1000 hilltop cir, baltimore, md 21250, usa",39.2537714302915,39.2510734697085,-76.70646596970849,-76.70916393029151
Ed Clark High School,Las Vegas,NV,"Ed Clark High School, Las Vegas, NV",-115.1976379,36.1360325,establishment,rooftop,"4291 pennwood ave, las vegas, nv 89102, usa",36.1370248802915,36.1343269197085,-115.1968852197085,-115.1995831802915
Silver Spurs Arena,Kissimmee,FL,"Silver Spurs Arena, Kissimmee, FL",-81.3689867,28.2989399,establishment,rooftop,"1875 silver spur ln, kissimmee, fl 34744, usa",28.3000036302915,28.29730566970849,-81.3679113697085,-81.3706093302915
Chase Fieldhouse,Wilmington,DE,"Chase Fieldhouse, Wilmington, DE",-75.55522909999999,39.7274932,establishment,rooftop,"401 garasches ln, wilmington, de 19801, usa",39.7286754302915,39.7259774697085,-75.55416431970849,-75.5568622802915
Hammel Court,North Andover,MA,"Hammel Court, North Andover, MA",-71.11968499999999,42.6677273,establishment,geometric_center,"north andover, ma 01845, usa",42.6693618302915,42.6666638697085,-71.1188641197085,-71.12156208029151
CBU Events Center,Riverside,CA,"CBU Events Center, Riverside, CA",-117.4231911,33.9272577,establishment,geometric_center,"riverside, ca 92504, usa",33.9285327802915,33.92583481970851,-117.4219728697085,-117.4246708302915
Hamilton Gymnasium,Denver,CO,"Hamilton Gymnasium, Denver, CO",-104.9623875,39.6824829,subpremise,rooftop,"hamilton gymnasium, denver, co 80210, usa",39.6840395302915,39.6813415697085,-104.9607986197085,-104.9634965802915
RIMAC Arena,San Diego,CA,"RIMAC Arena, San Diego, CA",-117.2391227,32.8852786,establishment,rooftop,"9730 hopkins dr, la jolla, ca 92093, usa",32.8866327802915,32.8839348197085,-117.2375094197085,-117.2402073802915
Atlantic Union Bank Center,Harrisonburg,VA,"Atlantic Union Bank Center, Harrisonburg, VA",-78.8595503,38.430443,establishment,rooftop,"645 university blvd, harrisonburg, va 22801, usa",38.43181808029149,38.4291201197085,-78.85796296970851,-78.86066093029152
Freedom Hall,Louisville,KY,"Freedom Hall, Louisville, KY",-85.7416509,38.1996107,establishment,rooftop,"937 phillips ln, louisville, ky 40209, usa",38.2009541302915,38.1982561697085,-85.7403349197085,-85.74303288029151
Wisdom Gym,Stephenville,TX,"Wisdom Gym, Stephenville, TX",-98.21997999999999,32.2155689,establishment,geometric_center,"w vanderbilt st, stephenville, tx 76401, usa",32.2166492802915,32.21395131970851,-98.21917256970849,-98.2218705302915
Burns Arena,St. George,UT,"Burns Arena, St. George, UT",-113.5670441,37.1014185,establishment,rooftop,"700 e 400 s, st. george, ut 84770, usa",37.1027601802915,37.1000622197085,-113.5653987697085,-113.5680967302915
Eastwood High School Gymnasium,El Paso,TX,"Eastwood High School Gymnasium, El Paso, TX",-106.35517,31.772258,establishment,rooftop,"2430 mcrae blvd, el paso, tx 79925, usa",31.7733710302915,31.7706730697085,-106.3539386697085,-106.3566366302915
Bert Ogden Arena,Edinburg,TX,"Bert Ogden Arena, Edinburg, TX",-98.164756,26.2554997,establishment,rooftop,"4900s i-69c, edinburg, tx 78539, usa",26.2568933302915,26.2541953697085,-98.1638497697085,-98.16654773029151
Covelli Center (Ohio State),Columbus,OH,"Covelli Center (Ohio State), Columbus, OH",-83.0276208,40.0139192,establishment,rooftop,"2640 fred taylor dr, columbus, oh 43210, usa",40.0152737302915,40.0125757697085,-83.02678601970848,-83.0294839802915
Comerica Center,Frisco,TX,"Comerica Center, Frisco, TX",-96.8191214,33.1005264,establishment,rooftop,"2601 avenue of the stars, frisco, tx 75034, usa",33.10216588029149,33.09946791970849,-96.8178915197085,-96.8205894802915
Kaiser Permanente Arena,Santa Cruz,CA,"Kaiser Permanente Arena, Santa Cruz, CA",-122.0231222,36.96825,establishment,rooftop,"140 front st, santa cruz, ca 95060, usa",36.9697469802915,36.9670490197085,-122.0218316697085,-122.0245296302915
Liberty Arena,Lynchburg,VA,"Liberty Arena, Lynchburg, VA",-79.1799013,37.3493982,establishment,rooftop,"1971 university blvd, lynchburg, va 24515, usa",37.3507922302915,37.3480942697085,-79.1781435197085,-79.1808414802915
Nido and Mariana Qubein Arena,High Point,NC,"Nido and Mariana Qubein Arena, High Point, NC",-79.99670549999999,35.9783502,establishment,rooftop,"1010 panther dr, high point, nc 27262, usa",35.9799931802915,35.9772952197085,-79.99549851970849,-79.99819648029151
Titan Field House,Melbourne,FL,"Titan Field House, Melbourne, FL",-80.6672049,28.1681685,route,geometric_center,"titan blvd, melbourne, fl, usa",28.1724458,28.1660669,-80.6645973,-80.6722251
Walter E. Washington Convention Center,Washington,DC,"Walter E. Washington Convention Center, Washington, DC",-77.02299339999999,38.9048838,establishment,rooftop,"801 mt vernon pl nw, washington, dc 20001, usa",38.9052724302915,38.9025744697085,-77.02160986970848,-77.02430783029149
Ability 360 Sports and Fitness Center,Phoenix,AZ,"Ability 360 Sports and Fitness Center, Phoenix, AZ",-111.9737363,33.4451355,establishment,rooftop,"5031 e washington st, phoenix, az 85034, usa",33.4466321302915,33.44393416970851,-111.9725282697085,-111.9752262302915
Rip Griffin Center,Lubbock,TX,"Rip Griffin Center, Lubbock, TX",-101.9318901,33.5718299,establishment,rooftop,"5502 26th st, lubbock, tx 79407, usa",33.57295818029149,33.57026021970849,-101.9305458197085,-101.9332437802915
ACU Events Center,Glendale,AZ,"ACU Events Center, Glendale, AZ",-112.1807676,33.6209932,establishment,rooftop,"1 w. firestorm way, glendale, az 85306, usa",33.62187588029149,33.6191779197085,-112.1794229197085,-112.1821208802915
Solomon Court at Cabot Center,Boston,MA,"Solomon Court at Cabot Center, Boston, MA",-71.08933499999999,42.3393388,establishment,rooftop,"400 huntington ave, boston, ma 02115, usa",42.3405600802915,42.3378621197085,-71.08788201970849,-71.0905799802915
Mabee Fieldhouse,Kansas City,MO,"Mabee Fieldhouse, Kansas City, MO",-94.59217749999999,38.911069,establishment,geometric_center,"11901 wornall road whitfield building, kansas city, mo 64145, usa",38.9122896302915,38.9095916697085,-94.5906632697085,-94.5933612302915
Indiana Convention Center,Indianapolis,IN,"Indiana Convention Center, Indianapolis, IN",-86.1643665,39.7645005,establishment,rooftop,"100 s capitol ave, indianapolis, in 46225, usa",39.7664187802915,39.7637208197085,-86.1617984,-86.1664899
Murchison Gymnasium,Santa Barbara,CA,"Murchison Gymnasium, Santa Barbara, CA",-119.6623203,34.4481429,establishment,geometric_center,"montecito, ca 93108, usa",34.4495605802915,34.4468626197085,-119.6609397197085,-119.6636376802915
John J. Moore Athletics and Fitness Center,Jersey City,NJ,"John J. Moore Athletics and Fitness Center, Jersey City, NJ",-74.0891177,40.7129524,establishment,rooftop,"110 culver ave, jersey city, nj 07305, usa",40.7139738302915,40.7112758697085,-74.0876523197085,-74.0903502802915
Michelob ULTRA Arena,Las Vegas,NV,"Michelob ULTRA Arena, Las Vegas, NV",-115.1747709,36.0924111,establishment,rooftop,"mandalay bay, 3950 s las vegas blvd, las vegas, nv 89119, usa",36.0937620802915,36.0910641197085,-115.1731916197085,-115.1758895802915
Hartsell Arena,Pensacola,FL,"Hartsell Arena, Pensacola, FL",-87.1995723,30.4793276,establishment,geometric_center,"pensacola, fl 32504, usa",30.48047663029149,30.4777786697085,-87.1979044697085,-87.20060243029151
Pensacola Bay Center,Pensacola,FL,"Pensacola Bay Center, Pensacola, FL",-87.2089049,30.416400200000002,establishment,rooftop,"201 e gregory st, pensacola, fl 32502, usa",30.4176710802915,30.4149731197085,-87.20804281970848,-87.21074078029149
Lucas Oil Stadium,Indianapolis,IN,"Lucas Oil Stadium, Indianapolis, IN",-86.16388769999999,39.7601007,establishment,rooftop,"500 s capitol ave, indianapolis, in 46225, usa",39.7611104,39.7567048,-86.1623194,-86.16556969999999
Eagles' Nest,Marietta,GA,"Eagles' Nest, Marietta, GA",-84.51727509999999,33.93102289999999,establishment,rooftop,"1266 barclay cir, marietta, ga 30060, usa",33.9324185302915,33.9297205697085,-84.5162667197085,-84.5189646802915
Climate Pledge Arena,Seattle,WA,"Climate Pledge Arena, Seattle, WA",-122.3540714,47.62207129999999,establishment,rooftop,"334 1st ave n, seattle, wa 98109, usa",47.62345808029149,47.62076011970849,-122.3527892697085,-122.3554872302915
ICCU Arena,Moscow,ID,"ICCU Arena, Moscow, ID",-117.0182616,46.72750310000001,establishment,geometric_center,"moscow, id 83843, usa",46.72885208029151,46.72615411970851,-117.0169126197085,-117.0196105802915
Ocean Center,Daytona Beach,FL,"Ocean Center, Daytona Beach, FL",-81.01118749999999,29.228402,establishment,rooftop,"101 n atlantic ave, daytona beach, fl 32118, usa",29.2293287302915,29.2266307697085,-81.00972926970849,-81.0124272302915
Moe Kent Family Field House,Naples,FL,"Moe Kent Family Field House, Naples, FL",-81.7948103,26.1420358,locality,approximate,"naples, fl, usa",26.211242,26.078572,-81.766661,-81.8224189
JSerra Pavillion,San Juan Capistrano,CA,"JSerra Pavillion, San Juan Capistrano, CA",-117.6682319,33.5208645,establishment,rooftop,"26351 junipero serra rd, san juan capistrano, ca 92675, usa",33.5219851302915,33.5192871697085,-117.6673525197085,-117.6700504802915
Raider Arena,Destin,FL,"Raider Arena, Destin, FL",-86.4957833,30.3935337,locality,approximate,"destin, fl 32541, usa",30.4177911,30.3786649,-86.3972069,-86.515789
Teague Center,Abilene,TX,"Teague Center, Abilene, TX",-99.70837139999999,32.4712266,establishment,rooftop,"1600 campus ct, abilene, tx 79601, usa",32.4725199802915,32.4698220197085,-99.7072897697085,-99.7099877302915
Gregory Gym,Austin,TX,"Gregory Gym, Austin, TX",-97.7368011,30.2842496,establishment,rooftop,"2101 speedway, austin, tx 78712, usa",30.2858386302915,30.2831406697085,-97.73569906970849,-97.7383970302915
Schoenecker Arena,Saint Paul,MN,"Schoenecker Arena, Saint Paul, MN",-93.1906698,44.9433951,establishment,rooftop,"2115 summit ave, st paul, mn 55105, usa",44.9438705302915,44.9411725697085,-93.1893189197085,-93.1920168802915
UBS Arena,Elmont,NY,"UBS Arena, Elmont, NY",-73.7260398,40.71179009999999,establishment,rooftop,"2400 hempstead turnpike, elmont, ny 11003, usa",40.7136521,40.710832,-73.7246992,-73.7274394
LeBron James Arena,Akron,OH,"LeBron James Arena, Akron, OH",-81.51900529999999,41.0814447,locality,approximate,"akron, oh, usa",41.171061,40.9976731,-81.4049419,-81.6210139
Lifetime Activities Center,Salt Lake City,UT,"Lifetime Activities Center, Salt Lake City, UT",-111.9457284,40.6728493,premise,rooftop,"lifetime activities center, taylorsville, ut 84123, usa",40.67430978029149,40.6716118197085,-111.9441176697085,-111.9468156302915
Bojangles Coliseum,Charlotte,NC,"Bojangles Coliseum, Charlotte, NC",-80.7951733,35.2050925,establishment,rooftop,"2700 e independence blvd, charlotte, nc 28205, usa",35.2061793302915,35.2034813697085,-80.79410531970849,-80.7968032802915
Dollar Loan Center,Henderson,NV,"Dollar Loan Center, Henderson, NV",-115.0813502,36.0192187,establishment,rooftop,"200 s green valley pkwy, henderson, nv 89012, usa",36.0209437802915,36.0182458197085,-115.0796763197085,-115.0823742802915
AT&T Center,San Antonio,TX,"AT&T Center, San Antonio, TX",NA,NA,NA,NA,NA,NA,NA,NA,NA
Caesars Superdome,New Orleans,LA,"Caesars Superdome, New Orleans, LA",-90.0812442,29.951061,establishment,rooftop,"1500 sugar bowl dr, new orleans, la 70112, usa",29.952561,29.9492032,-90.07914099999999,-90.0832866
